postal,name,lat,lng,province
1000,Brussel,50.8427501,4.3515499,Vlaams-Brabant
1020,Laken,50.884218,4.3580002,Vlaams-Brabant
1030,Schaarbeek,50.86744,4.37727,Vlaams-Brabant
1040,Etterbeek,50.83259,4.38899,Vlaams-Brabant
1050,Elsene,50.8270563,4.372308,Vlaams-Brabant
1060,Sint-Gillis,50.8301436,4.3402184,Vlaams-Brabant
1070,Anderlecht,50.8365808,4.308187,Vlaams-Brabant
1080,Sint-Jans-Molenbeek,50.8522009,4.3303277,Vlaams-Brabant
1081,Koekelberg,50.8633811,4.330338,Vlaams-Brabant
1082,Sint-Agatha-Berchem,50.8657821,4.2925975,Vlaams-Brabant
1083,Ganshoren,50.87113,4.30253,Vlaams-Brabant
1090,Jette,50.8808582,4.3227894,Vlaams-Brabant
1120,Neder-Over-Heembeek,50.89622,4.37188,Vlaams-Brabant
1130,Haren,50.8922905,4.4176727,Vlaams-Brabant
1140,Evere,50.8739353,4.4009421,Vlaams-Brabant
1150,Sint-Pieters-Woluwe,50.8299809,4.4335038,Vlaams-Brabant
1160,Oudergem,50.81643,4.42649,Vlaams-Brabant
1170,Watermaal-Bosvoorde,50.7881573,4.4180065,Vlaams-Brabant
1180,Ukkel,50.80241,4.34067,Vlaams-Brabant
1190,Vorst,50.81745,4.32675,Vlaams-Brabant
1200,Sint-Lambrechts-Woluwe,50.8489094,4.4320883,Vlaams-Brabant
1210,Sint-Joost-Ten-Noode,50.8537715,4.3704657,Vlaams-Brabant
1300,Limal,50.6934506,4.5732954,Waals-Brabant
1300,Wavre,50.7158951,4.6128257,Waals-Brabant
1301,Bierges,50.7113795,4.5871684,Waals-Brabant
1310,La Hulpe,50.7309955,4.4856707,Waals-Brabant
1315,Glimes,50.6796,4.83774,Waals-Brabant
1315,Incourt,50.69188,4.7966,Waals-Brabant
1315,Opprebais,50.67946,4.79819,Waals-Brabant
1315,Piètrebais,50.72796,4.76381,Waals-Brabant
1315,Roux-Miroir,50.70811,4.78513,Waals-Brabant
1320,Beauvechain,50.75861,4.768333,Waals-Brabant
1320,Hamme-Mille,50.77953,4.71694,Waals-Brabant
1320,L'ecluse,50.77184,4.83183,Waals-Brabant
1320,Nodebais,50.77319,4.73555,Waals-Brabant
1320,Tourinnes-La-Grosse,50.78281,4.74445,Waals-Brabant
1325,Bonlez,50.70193,4.68948,Waals-Brabant
1325,Chaumont-Gistoux,50.67687,4.71943,Waals-Brabant
1325,Corroy-Le-Grand,50.66206,4.67458,Waals-Brabant
1325,Dion-Valmont,50.6974838,4.6588254,Waals-Brabant
1325,Longueville,50.70231,4.74014,Waals-Brabant
1330,Rixensart,50.7109736,4.5306325,Waals-Brabant
1331,Rosières,50.73015,4.54441,Waals-Brabant
1332,Genval,50.7211,4.49388,Waals-Brabant
1340,Ottignies,50.665465,4.5669046,Waals-Brabant
1340,Ottignies-Louvain-La-Neuve,50.6672105,4.5859684,Waals-Brabant
1341,Céroux-Mousty,50.660369,4.5204882,Waals-Brabant
1342,Limelette,50.6703046,4.5659574,Waals-Brabant
1348,Louvain-La-Neuve,50.668081,4.6118324,Waals-Brabant
1350,Enines,50.69366,4.92655,Waals-Brabant
1350,Folx-Les-Caves,50.66042,4.9376,Waals-Brabant
1350,Jandrain-Jandrenouille,50.67368,4.97969,Waals-Brabant
1350,Jauche,50.68298,4.9547,Waals-Brabant
1350,Marilles,50.70716,4.95274,Waals-Brabant
1350,Noduwez,50.7296034,4.9638247,Waals-Brabant
1350,Orp-Jauche,50.68298,4.9547,Waals-Brabant
1350,Orp-Le-Grand,50.7038,4.990742,Waals-Brabant
1357,HÉlÉcine,50.7497791,4.9829359,Waals-Brabant
1357,Linsmeau,50.7335692,5.0029743,Waals-Brabant
1357,Neerheylissem,50.7551532,4.9872002,Waals-Brabant
1357,Opheylissem,50.7477492,4.9774665,Waals-Brabant
1360,Malèves-Sainte-Marie-Wastines,50.65503,4.77943,Waals-Brabant
1360,Orbais,50.63757,4.76323,Waals-Brabant
1360,Perwez,50.62395,4.81503,Waals-Brabant
1360,Thorembais-Les-Béguines,50.65799,4.81728,Waals-Brabant
1360,Thorembais-Saint-Trond,50.63465,4.78646,Waals-Brabant
1367,Autre-Eglise,50.66926,4.90375,Waals-Brabant
1367,Bomal,50.6711,4.87332,Waals-Brabant
1367,Geest-Gérompont-Petit-Rosière,50.64088,4.85744,Waals-Brabant
1367,Gérompont,50.64847,4.88169,Waals-Brabant
1367,Grand-Rosière-Hottomont,50.6319864,4.8661554,Waals-Brabant
1367,Huppaye,50.69347,4.89383,Waals-Brabant
1367,Mont-Saint-André,50.65524,4.86451,Waals-Brabant
1367,Ramillies,50.63679,4.91451,Waals-Brabant
1370,Dongelberg,50.70338,4.82007,Waals-Brabant
1370,Jauchelette,50.68631,4.84358,Waals-Brabant
1370,Jodoigne,50.72336,4.87115,Waals-Brabant
1370,Jodoigne-Souveraine,50.70898,4.83678,Waals-Brabant
1370,Lathuy,50.72366,4.82613,Waals-Brabant
1370,Mélin,50.73979,4.82852,Waals-Brabant
1370,Piétrain,50.72476,4.9207,Waals-Brabant
1370,Saint-Jean-Geest,50.73964,4.89548,Waals-Brabant
1370,Saint-Remy-Geest,50.74636,4.86019,Waals-Brabant
1370,Zétrud-Lumay,50.75792,4.8859,Waals-Brabant
1380,Couture-Saint-Germain,50.67502,4.47252,Waals-Brabant
1380,Lasne,50.68736,4.48135,Waals-Brabant
1380,Lasne-Chapelle-Saint-Lambert,50.69185,4.50213,Waals-Brabant
1380,Maransart,50.65953,4.46745,Waals-Brabant
1380,Ohain,50.69907,4.46919,Waals-Brabant
1380,Plancenoit,50.66196,4.42863,Waals-Brabant
1390,Archennes,50.7524768,4.669868,Waals-Brabant
1390,Biez,50.7267436,4.7019841,Waals-Brabant
1390,Bossut-Gottechain,50.7613181,4.6941056,Waals-Brabant
1390,Grez-Doiceau,50.7385816,4.6972809,Waals-Brabant
1390,Nethen,50.7837825,4.6741168,Waals-Brabant
1400,Monstreux,50.59803,4.28884,Waals-Brabant
1400,Nivelles,50.5886574,4.3308649,Waals-Brabant
1401,Baulers,50.61341,4.35387,Waals-Brabant
1402,Thines,50.59734,4.36846,Waals-Brabant
1404,Bornival,50.6011653,4.2762763,Waals-Brabant
1410,Waterloo,50.71469,4.3991,Waals-Brabant
1420,Braine-L'alleud,50.6969022,4.3538379,Waals-Brabant
1421,Ophain-Bois-Seigneur-Isaac,50.66642,4.34886,Waals-Brabant
1428,Lillois-Witterzée,50.64567,4.36712,Waals-Brabant
1430,Bierghes,50.6956998,4.1195104,Waals-Brabant
1430,Quenast,50.6729162,4.157332,Waals-Brabant
1430,Rebecq,50.665828,4.1326285,Waals-Brabant
1430,Rebecq-Rognon,50.6659293,4.1326563,Waals-Brabant
1435,Corbais,50.6462709,4.6553809,Waals-Brabant
1435,Hévillers,50.6215801,4.6154602,Waals-Brabant
1435,Mont-Saint-Guibert,50.6347043,4.6106474,Waals-Brabant
1440,Braine-Le-ChÂteau,50.6802986,4.2689347,Waals-Brabant
1440,Wauthier-Braine,50.68121,4.29806,Waals-Brabant
1450,Chastre,50.60813,4.63569,Waals-Brabant
1450,Chastre-Villeroux-Blanmont,50.6,4.617,Waals-Brabant
1450,Cortil-Noirmont,50.58136,4.64284,Waals-Brabant
1450,Gentinnes,50.581655,4.6012217,Waals-Brabant
1450,Saint-Géry,50.5804909,4.6124318,Waals-Brabant
1457,Nil-Saint-Vincent-Saint-Martin,50.64214,4.67982,Waals-Brabant
1457,Tourinnes-Saint-Lambert,50.63932,4.72389,Waals-Brabant
1457,Walhain,50.61654,4.69545,Waals-Brabant
1457,Walhain-Saint-Paul,50.632777,4.7025798,Waals-Brabant
1460,Ittre,50.6326887,4.2632352,Waals-Brabant
1460,Virginal-Samme,50.63983,4.20587,Waals-Brabant
1461,Haut-Ittre,50.65357,4.29825,Waals-Brabant
1470,Baisy-Thy,50.5969876,4.4760976,Waals-Brabant
1470,Bousval,50.6149444,4.5051441,Waals-Brabant
1470,Genappe,50.6108278,4.4503759,Waals-Brabant
1471,Loupoigne,50.5978099,4.4445799,Waals-Brabant
1472,Vieux-Genappe,50.6082918,4.4405969,Waals-Brabant
1473,Glabais,50.6302595,4.4532789,Waals-Brabant
1474,Ways,50.6104429,4.4644969,Waals-Brabant
1476,Houtain-Le-Val,50.5829629,4.4113773,Waals-Brabant
1480,Clabecq,50.69212,4.22163,Waals-Brabant
1480,Oisquercq,50.66989,4.21985,Waals-Brabant
1480,Saintes,50.70615,4.15817,Waals-Brabant
1480,Tubize,50.69054,4.2026,Waals-Brabant
1490,Court-Saint-Etienne,50.6422504,4.5680813,Waals-Brabant
1495,Marbais,50.5463818,4.5351225,Waals-Brabant
1495,Mellery,50.5816873,4.5688539,Waals-Brabant
1495,Sart-Dames-Avelines,50.5685048,4.4917395,Waals-Brabant
1495,Tilly,50.5614355,4.5490482,Waals-Brabant
1495,Villers-La-Ville,50.5791942,4.5345409,Waals-Brabant
1500,Halle,50.7324848,4.2349129,Vlaams-Brabant
1501,Buizingen,50.741419,4.2500475,Vlaams-Brabant
1502,Lembeek,50.7140616,4.2200436,Vlaams-Brabant
1540,Herfelingen,50.7477711,4.0998655,Vlaams-Brabant
1540,Herne,50.7233164,4.0536565,Vlaams-Brabant
1541,Sint-Pieters-Kapelle,50.7070524,3.9899741,Vlaams-Brabant
1547,Bever,50.7169522,3.9406874,Vlaams-Brabant
1560,Hoeilaart,50.7674863,4.4740458,Vlaams-Brabant
1570,Galmaarden,50.7529396,3.9709478,Vlaams-Brabant
1570,Tollembeek,50.7410978,4.006775,Vlaams-Brabant
1570,Vollezele,50.7607201,4.0252744,Vlaams-Brabant
1600,Oudenaken,50.78068,4.19938,Vlaams-Brabant
1600,Sint-Laureins-Berchem,50.78681,4.19938,Vlaams-Brabant
1600,Sint-Pieters-Leeuw,50.7842441,4.242743,Vlaams-Brabant
1601,Ruisbroek,50.79035,4.29862,Vlaams-Brabant
1602,Vlezenbeek,50.80785,4.23213,Vlaams-Brabant
1620,Drogenbos,50.7875382,4.3164506,Vlaams-Brabant
1630,Linkebeek,50.7660264,4.3456087,Vlaams-Brabant
1640,Sint-Genesius-Rode,50.74594,4.35753,Vlaams-Brabant
1650,Beersel,50.7686913,4.3120069,Vlaams-Brabant
1651,Lot,50.76778,4.27707,Vlaams-Brabant
1652,Alsemberg,50.74163,4.33613,Vlaams-Brabant
1653,Dworp,50.72949,4.30109,Vlaams-Brabant
1654,Huizingen,50.74657,4.27369,Vlaams-Brabant
1670,Bogaarden,50.74,4.13632,Vlaams-Brabant
1670,Heikruis,50.73504,4.11211,Vlaams-Brabant
1670,Pepingen,50.7360287,4.1360863,Vlaams-Brabant
1671,Elingen,50.77926,4.17119,Vlaams-Brabant
1673,Beert,50.74103,4.18184,Vlaams-Brabant
1674,Bellingen,50.7408,4.15399,Vlaams-Brabant
1700,Dilbeek,50.8464512,4.2620632,Vlaams-Brabant
1700,Sint-Martens-Bodegem,50.8614672,4.2128916,Vlaams-Brabant
1700,Sint-Ulriks-Kapelle,50.8790042,4.2182047,Vlaams-Brabant
1701,Itterbeek,50.8381387,4.2500689,Vlaams-Brabant
1702,Groot-Bijgaarden,50.8719066,4.2500012,Vlaams-Brabant
1703,Schepdaal,50.8383485,4.1958272,Vlaams-Brabant
1730,Asse,50.9054755,4.2048959,Vlaams-Brabant
1730,Bekkerzeel,50.88523,4.23803,Vlaams-Brabant
1730,Kobbegem,50.90862,4.25104,Vlaams-Brabant
1730,Mollem,50.9313,4.22636,Vlaams-Brabant
1731,Relegem,50.89908,4.27702,Vlaams-Brabant
1731,Zellik,50.88449,4.27401,Vlaams-Brabant
1733,Highco Data,50.8985334,4.2185564,Vlaams-Brabant
1740,Ternat,50.8698353,4.1808317,Vlaams-Brabant
1741,Wambeek,50.8532484,4.1628356,Vlaams-Brabant
1742,Sint-Katherina-Lombeek,50.8732586,4.1559883,Vlaams-Brabant
1745,Mazenzele,50.942789,4.1711583,Vlaams-Brabant
1745,Opwijk,50.971588,4.186911,Vlaams-Brabant
1750,Gaasbeek,50.79987,4.18893,Vlaams-Brabant
1750,Lennik,50.8086929,4.161434,Vlaams-Brabant
1750,Sint-Kwintens-Lennik,50.80422,4.15481,Vlaams-Brabant
1750,Sint-Martens-Lennik,50.8127052,4.1686333,Vlaams-Brabant
1755,Gooik,50.7952811,4.1180489,Vlaams-Brabant
1755,Kester,50.76428,4.11935,Vlaams-Brabant
1755,Leerbeek,50.77787,4.11943,Vlaams-Brabant
1755,Oetingen,50.77347,4.06312,Vlaams-Brabant
1760,Onze-Lieve-Vrouw-Lombeek,50.8197588,4.1101502,Vlaams-Brabant
1760,Pamel,50.84495,4.07101,Vlaams-Brabant
1760,Roosdaal,50.8314294,4.0879776,Vlaams-Brabant
1760,Strijtem,50.8412507,4.1173658,Vlaams-Brabant
1761,Borchtlombeek,50.8475374,4.139768,Vlaams-Brabant
1770,Liedekerke,50.86891,4.08729,Vlaams-Brabant
1780,Wemmel,50.91032,4.30096,Vlaams-Brabant
1785,Brussegem,50.92574,4.26608,Vlaams-Brabant
1785,Hamme,50.92042,4.28061,Vlaams-Brabant
1785,Merchtem,50.95842,4.23244,Vlaams-Brabant
1790,Affligem,50.9084,4.11281,Vlaams-Brabant
1790,Essene,50.9015743,4.1364265,Vlaams-Brabant
1790,Hekelgem,50.9072267,4.1084956,Vlaams-Brabant
1790,Teralfene,50.8922688,4.0987022,Vlaams-Brabant
1800,Peutie,50.927361,4.455442,Vlaams-Brabant
1800,Vilvoorde,50.9272511,4.4257868,Vlaams-Brabant
1804,Cargovil,50.947259,4.427268,Vlaams-Brabant
1818,Vtm,50.9136056,4.3981412,Vlaams-Brabant
1820,Melsbroek,50.91535,4.4787175,Vlaams-Brabant
1820,Perk,50.93488,4.49592,Vlaams-Brabant
1820,Steenokkerzeel,50.90793,4.51349,Vlaams-Brabant
1830,Machelen,50.9125185,4.4376749,Vlaams-Brabant
1831,Diegem,50.8940397,4.4362628,Vlaams-Brabant
1840,Londerzeel,51.00311,4.3026,Vlaams-Brabant
1840,Malderen,51.02033,4.24629,Vlaams-Brabant
1840,Steenhuffel,50.99577,4.26716,Vlaams-Brabant
1850,Grimbergen,50.9356235,4.3785596,Vlaams-Brabant
1851,Humbeek,50.9672327,4.3795118,Vlaams-Brabant
1852,Beigem,50.9528364,4.3660653,Vlaams-Brabant
1853,Strombeek-Bever,50.910465,4.357792,Vlaams-Brabant
1860,Meise,50.9478621,4.3302827,Vlaams-Brabant
1861,Wolvertem,50.95088,4.30927,Vlaams-Brabant
1880,Kapelle-Op-Den-Bos,51.01324,4.35541,Vlaams-Brabant
1880,Nieuwenrode,50.97857,4.35229,Vlaams-Brabant
1880,Ramsdonk,51.01483,4.33519,Vlaams-Brabant
1910,Berg,50.9316005,4.5377032,Vlaams-Brabant
1910,Buken,50.9403268,4.6169484,Vlaams-Brabant
1910,Kampenhout,50.9338827,4.5605498,Vlaams-Brabant
1910,Nederokkerzeel,50.9220293,4.5633381,Vlaams-Brabant
1930,Nossegem,50.8781921,4.5074739,Vlaams-Brabant
1930,Zaventem,50.8795024,4.4826212,Vlaams-Brabant
1931,Brucargo,50.903293,4.452214,Vlaams-Brabant
1932,Sint-Stevens-Woluwe,50.8691972,4.4502354,Vlaams-Brabant
1933,Sterrebeek,50.8654294,4.47262,Vlaams-Brabant
1934,Office Exchange Brussels Airport Remailing,50.8969448,4.4843148,Vlaams-Brabant
1935,Corporate Village,50.889898,4.4580055,Vlaams-Brabant
1950,Kraainem,50.8610856,4.4592974,Vlaams-Brabant
1970,Wezembeek-Oppem,50.85092,4.48742,Vlaams-Brabant
1980,Eppegem,50.9621231,4.4544329,Vlaams-Brabant
1980,Zemst,50.985535,4.455834,Vlaams-Brabant
1981,Hofstade,50.9916699,4.4924542,Vlaams-Brabant
1982,Elewijt,50.9618503,4.4964542,Vlaams-Brabant
1982,Weerde,50.9721843,4.4793294,Vlaams-Brabant
2000,Antwerpen,51.2198771,4.4011356,Antwerpen
2018,Antwerpen,51.2037695,4.4112637,Antwerpen
2020,Antwerpen,51.1890846,4.3836284,Antwerpen
2030,Antwerpen,51.2763963,4.3624604,Antwerpen
2040,Antwerpen,51.3418306,4.2964605,Antwerpen
2040,Berendrecht,51.34287,4.31409,Antwerpen
2040,Lillo,51.30436,4.28026,Antwerpen
2040,Zandvliet,51.35965,4.30716,Antwerpen
2050,Antwerpen,51.2287575,4.3740221,Antwerpen
2060,Antwerpen,51.2269388,4.4276298,Antwerpen
2070,Burcht,51.20367,4.34148,Antwerpen
2070,Zwijndrecht,51.2164116,4.3335905,Antwerpen
2099,Antwerpen X,51.2083343,4.4111603,Antwerpen
2100,Deurne,51.2207104,4.4648012,Antwerpen
2110,Wijnegem,51.2298182,4.5108974,Antwerpen
2140,Borgerhout,51.2143174,4.4348985,Antwerpen
2150,Borsbeek,51.1966684,4.4856299,Antwerpen
2160,Wommelgem,51.2021676,4.5219648,Antwerpen
2170,Merksem,51.2512741,4.448539,Antwerpen
2180,Ekeren,51.2807314,4.4184495,Antwerpen
2200,Herentals,51.1768785,4.835648,Antwerpen
2200,Morkhoven,51.1200863,4.8207292,Antwerpen
2200,Noorderwijk,51.1393923,4.8388348,Antwerpen
2220,Hallaar,51.08464,4.73293,Antwerpen
2220,Heist-Op-Den-Berg,51.0633847,4.7210601,Antwerpen
2221,Booischot,51.05151,4.77523,Antwerpen
2222,Itegem,51.10321,4.72927,Antwerpen
2222,Wiekevorst,51.10914,4.7944915,Antwerpen
2223,Schriek,51.02745,4.69272,Antwerpen
2230,Herselt,51.05238,4.88068,Antwerpen
2230,Ramsel,51.03211,4.8328,Antwerpen
2235,Houtvenne,51.04208,4.80894,Antwerpen
2235,Hulshout,51.0647242,4.816508,Antwerpen
2235,Westmeerbeek,51.06032,4.8351,Antwerpen
2240,Massenhoven,51.1986273,4.6364247,Antwerpen
2240,Viersel,51.1890184,4.6523097,Antwerpen
2240,Zandhoven,51.2021793,4.6554212,Antwerpen
2242,Pulderbos,51.2165685,4.6919,Antwerpen
2243,Pulle,51.2032977,4.7137397,Antwerpen
2250,Olen,51.1440245,4.8599119,Antwerpen
2260,Oevel,51.1387198,4.9042615,Antwerpen
2260,Tongerlo,51.10533,4.91565,Antwerpen
2260,Westerlo,51.0899524,4.9143395,Antwerpen
2260,Zoerle-Parwijs,51.08879,4.86894,Antwerpen
2270,Herenthout,51.1394506,4.7564892,Antwerpen
2275,Gierle,51.2671512,4.8677063,Antwerpen
2275,Lille,51.2420452,4.8232254,Antwerpen
2275,Poederlee,51.2263125,4.8353147,Antwerpen
2275,Wechelderzande,51.2645356,4.7999275,Antwerpen
2280,Grobbendonk,51.1832616,4.7349959,Antwerpen
2288,Bouwel,51.1719684,4.7420582,Antwerpen
2290,Vorselaar,51.2025247,4.7708827,Antwerpen
2300,Turnhout,51.3216509,4.9375577,Antwerpen
2310,Rijkevorsel,51.3480582,4.7605267,Antwerpen
2320,Hoogstraten,51.403297,4.7468218,Antwerpen
2321,Meer,51.4456,4.7383,Antwerpen
2322,Minderhout,51.41654,4.76339,Antwerpen
2323,Wortel,51.39751,4.79475,Antwerpen
2328,Meerle,51.4733516,4.803769,Antwerpen
2330,Merksplas,51.358185,4.8635657,Antwerpen
2340,Beerse,51.31949,4.85482,Antwerpen
2340,Vlimmeren,51.2971394,4.7820454,Antwerpen
2350,Vosselaar,51.3030836,4.8834494,Antwerpen
2360,Oud-Turnhout,51.3177601,4.982845,Antwerpen
2370,Arendonk,51.322049,5.0863348,Antwerpen
2380,Ravels,51.3762015,5.0185568,Antwerpen
2381,Weelde,51.406763,4.9908357,Antwerpen
2382,Poppel,51.4471741,5.0431801,Antwerpen
2387,Baarle-Hertog,51.441832,4.931736,Antwerpen
2390,Malle,51.2968136,4.6942633,Antwerpen
2390,Oostmalle,51.301137,4.7337542,Antwerpen
2390,Westmalle,51.2968136,4.6942633,Antwerpen
2400,Mol,51.191087,5.1170647,Antwerpen
2430,Eindhout,51.10334,4.9997,Antwerpen
2430,Laakdal,51.0873823,5.0242977,Antwerpen
2430,Vorst,51.07973,5.02024,Antwerpen
2431,Varendonk,51.08397,4.9513,Antwerpen
2431,Veerle,51.06994,4.98721,Antwerpen
2440,Geel,51.16257,4.99084,Antwerpen
2450,Meerhout,51.13219,5.07708,Antwerpen
2460,Kasterlee,51.2405204,4.9674449,Antwerpen
2460,Lichtaart,51.2197251,4.9108088,Antwerpen
2460,Tielen,51.2434976,4.8976789,Antwerpen
2470,Retie,51.2669664,5.0842508,Antwerpen
2480,Dessel,51.23985,5.11269,Antwerpen
2490,Balen,51.1578305,5.2100666,Antwerpen
2491,Olmen,51.1420912,5.15072,Antwerpen
2500,Koningshooikt,51.09522,4.61011,Antwerpen
2500,Lier,51.1302138,4.5715092,Antwerpen
2520,Broechem,51.1813334,4.6020124,Antwerpen
2520,Emblem,51.1620413,4.605068,Antwerpen
2520,Oelegem,51.2129972,4.5997149,Antwerpen
2520,Ranst,51.189094,4.5609095,Antwerpen
2530,Boechout,51.1664397,4.49717,Antwerpen
2531,Vremde,51.17486,4.52311,Antwerpen
2540,Hove,51.1539722,4.4711513,Antwerpen
2547,Lint,51.12723,4.49669,Antwerpen
2550,Kontich,51.1352235,4.4448202,Antwerpen
2550,Waarloos,51.105061,4.4546959,Antwerpen
2560,Bevel,51.13774,4.68038,Antwerpen
2560,Kessel,51.13915,4.62968,Antwerpen
2560,Nijlen,51.1613531,4.6706015,Antwerpen
2570,Duffel,51.0953745,4.5052038,Antwerpen
2580,Beerzel,51.05786,4.66764,Antwerpen
2580,Putte,51.05476,4.62867,Antwerpen
2590,Berlaar,51.11804,4.65752,Antwerpen
2590,Gestel,51.1284,4.67316,Antwerpen
2600,Berchem,51.189856,4.432951,Antwerpen
2610,Wilrijk,51.1683102,4.3942868,Antwerpen
2620,Hemiksem,51.14518,4.33834,Antwerpen
2627,Schelle,51.1269186,4.3388412,Antwerpen
2630,Aartselaar,51.1340539,4.3844742,Antwerpen
2640,Mortsel,51.1728522,4.4665225,Antwerpen
2650,Edegem,51.1559541,4.4318937,Antwerpen
2660,Hoboken,51.1775732,4.34992,Antwerpen
2800,Mechelen,51.0258791,4.4775365,Antwerpen
2800,Walem,51.0676813,4.4572147,Antwerpen
2801,Heffen,51.0468914,4.4137291,Antwerpen
2811,Hombeek,51.014356,4.4427697,Antwerpen
2811,Leest,51.0328978,4.4176682,Antwerpen
2812,Muizen,51.0103798,4.5157593,Antwerpen
2820,Bonheiden,51.02221,4.54803,Antwerpen
2820,Rijmenam,51.0037609,4.5902677,Antwerpen
2830,Blaasveld,51.05583,4.37719,Antwerpen
2830,Heindonk,51.0673,4.40756,Antwerpen
2830,Tisselt,51.03437,4.35717,Antwerpen
2830,Willebroek,51.0597994,4.3640791,Antwerpen
2840,Reet,51.1011334,4.4125882,Antwerpen
2840,Rumst,51.0804212,4.4217895,Antwerpen
2840,Terhagen,51.0791977,4.3992612,Antwerpen
2845,Niel,51.11064,4.33207,Antwerpen
2850,Boom,51.08608,4.36633,Antwerpen
2860,Sint-Katelijne-Waver,51.0614235,4.5055555,Antwerpen
2861,Onze-Lieve-Vrouw-Waver,51.0618859,4.5787019,Antwerpen
2870,Breendonk,51.04309,4.32204,Antwerpen
2870,Liezele,51.06082,4.28023,Antwerpen
2870,Puurs-Sint-Amands,51.0555561,4.2538889,Antwerpen
2870,Ruisbroek,51.08799,4.33107,Antwerpen
2880,Bornem,51.0996057,4.2404586,Antwerpen
2880,Hingene,51.1032985,4.2687874,Antwerpen
2880,Mariekerke,51.0634883,4.1923418,Antwerpen
2880,Weert,51.1034075,4.190123,Antwerpen
2890,Lippelo,51.04215,4.2586,Antwerpen
2890,Oppuurs,51.06607,4.24199,Antwerpen
2900,Schoten,51.2497532,4.4977063,Antwerpen
2910,Essen,51.46776,4.46844,Antwerpen
2920,Kalmthout,51.38298,4.47518,Antwerpen
2930,Brasschaat,51.29227,4.49419,Antwerpen
2940,Hoevenen,51.3061855,4.4047295,Antwerpen
2940,Stabroek,51.334729,4.371689,Antwerpen
2950,Kapellen,51.314024,4.4323815,Antwerpen
2960,Brecht,51.3496533,4.6377227,Antwerpen
2960,Sint-Job-In-'t-Goor,51.29827,4.5732,Antwerpen
2960,Sint-Lenaarts,51.34869,4.67703,Antwerpen
2970,'s Gravenwezel,51.26292,4.56096,Antwerpen
2970,Schilde,51.2407352,4.5834231,Antwerpen
2980,Halle,51.2398459,4.6465058,Antwerpen
2980,Zoersel,51.2682227,4.7125694,Antwerpen
2990,Loenhout,51.3990063,4.6432288,Antwerpen
2990,Wuustwezel,51.389404,4.5912302,Antwerpen
3000,Leuven,50.8815197,4.6967578,Vlaams-Brabant
3001,Heverlee,50.86386,4.69594,Vlaams-Brabant
3010,Kessel Lo,50.88514,4.73571,Vlaams-Brabant
3012,Wilsele,50.89047,4.69451,Vlaams-Brabant
3018,Wijgmaal,50.92624,4.70195,Vlaams-Brabant
3020,Herent,50.9092247,4.6768701,Vlaams-Brabant
3020,Veltem-Beisem,50.9063184,4.620825,Vlaams-Brabant
3020,Winksele,50.8974666,4.6435179,Vlaams-Brabant
3040,Huldenberg,50.7885995,4.5880687,Vlaams-Brabant
3040,Loonbeek,50.80972,4.61029,Vlaams-Brabant
3040,Neerijse,50.81743,4.62345,Vlaams-Brabant
3040,Ottenburg,50.75199,4.61579,Vlaams-Brabant
3040,Sint-Agatha-Rode,50.78559,4.63408,Vlaams-Brabant
3050,Oud-Heverlee,50.8282606,4.659534,Vlaams-Brabant
3051,Sint-Joris-Weert,50.8027501,4.6528755,Vlaams-Brabant
3052,Blanden,50.82558,4.70916,Vlaams-Brabant
3053,Haasrode,50.83159,4.72988,Vlaams-Brabant
3054,Vaalbeek,50.82553,4.68938,Vlaams-Brabant
3060,Bertem,50.8632924,4.6307637,Vlaams-Brabant
3060,Korbeek-Dijle,50.83807,4.6382,Vlaams-Brabant
3061,Leefdaal,50.84866,4.5939,Vlaams-Brabant
3070,Kortenberg,50.8855654,4.5374772,Vlaams-Brabant
3071,Erps-Kwerps,50.9006097,4.5607782,Vlaams-Brabant
3078,Everberg,50.8788296,4.5712345,Vlaams-Brabant
3078,Meerbeek,50.8818641,4.5892898,Vlaams-Brabant
3080,Duisburg,50.81569,4.55184,Vlaams-Brabant
3080,Tervuren,50.8259264,4.5077781,Vlaams-Brabant
3080,Vossem,50.83577,4.56026,Vlaams-Brabant
3090,Overijse,50.7681029,4.5336216,Vlaams-Brabant
3110,Rotselaar,50.9535967,4.7215113,Vlaams-Brabant
3111,Wezemaal,50.9482,4.75541,Vlaams-Brabant
3118,Werchter,50.97278,4.70007,Vlaams-Brabant
3120,Tremelo,50.9956159,4.7159551,Vlaams-Brabant
3128,Baal,50.99555,4.75304,Vlaams-Brabant
3130,Begijnendijk,51.0188,4.78263,Vlaams-Brabant
3130,Betekom,50.98566,4.7817,Vlaams-Brabant
3140,Keerbergen,51.0057936,4.6320416,Vlaams-Brabant
3150,Haacht,50.97894,4.64134,Vlaams-Brabant
3150,Tildonk,50.94327,4.64449,Vlaams-Brabant
3150,Wespelaar,50.95991,4.63884,Vlaams-Brabant
3190,Boortmeerbeek,50.9803397,4.5744373,Vlaams-Brabant
3191,Hever,50.995,4.55135,Vlaams-Brabant
3200,Aarschot,50.9806151,4.827381,Vlaams-Brabant
3200,Gelrode,50.96548,4.80272,Vlaams-Brabant
3201,Langdorp,50.99531,4.87083,Vlaams-Brabant
3202,Rillaar,50.97438,4.89422,Vlaams-Brabant
3210,Linden,50.89393,4.77215,Vlaams-Brabant
3210,Lubbeek,50.8813339,4.8292252,Vlaams-Brabant
3211,Binkom,50.87119,4.88439,Vlaams-Brabant
3212,Pellenberg,50.8715002,4.793849,Vlaams-Brabant
3220,Holsbeek,50.9248584,4.7861502,Vlaams-Brabant
3220,Kortrijk-Dutsel,50.9266825,4.8055097,Vlaams-Brabant
3220,Sint-Pieters-Rode,50.93239,4.82057,Vlaams-Brabant
3221,Nieuwrode,50.94955,4.83339,Vlaams-Brabant
3270,Scherpenheuvel,50.9800833,4.9753544,Vlaams-Brabant
3270,Scherpenheuvel-Zichem,50.9742707,4.9785767,Vlaams-Brabant
3271,Averbode,51.0305467,4.977454,Vlaams-Brabant
3271,Zichem,51.0006721,4.9830118,Vlaams-Brabant
3272,Messelbroek,50.9933331,4.9274801,Vlaams-Brabant
3272,Testelt,51.016921,4.9549334,Vlaams-Brabant
3290,Deurne,51.03936,5.09648,Vlaams-Brabant
3290,Diest,51.0010401,5.0852169,Vlaams-Brabant
3290,Schaffen,50.99975,5.08484,Vlaams-Brabant
3290,Webbekom,50.9722766,5.0720072,Vlaams-Brabant
3293,Kaggevinne,50.97937,5.01896,Vlaams-Brabant
3294,Molenstede,51.00378,5.01347,Vlaams-Brabant
3300,Bost,50.78839,4.94063,Vlaams-Brabant
3300,Goetsenhoven,50.76781,4.95114,Vlaams-Brabant
3300,Hakendover,50.79706,4.98525,Vlaams-Brabant
3300,Kumtich,50.82246,4.88742,Vlaams-Brabant
3300,Oorbeek,50.79811,4.8924,Vlaams-Brabant
3300,Oplinter,50.82923,4.98757,Vlaams-Brabant
3300,Sint-Margriete-Houtem,50.82836,4.95539,Vlaams-Brabant
3300,Tienen,50.81057,4.93622,Vlaams-Brabant
3300,Vissenaken,50.83768,4.90484,Vlaams-Brabant
3320,Hoegaarden,50.7806488,4.8685676,Vlaams-Brabant
3320,Meldert,50.78801,4.83772,Vlaams-Brabant
3321,Outgaarden,50.76521,4.91793,Vlaams-Brabant
3350,Drieslinter,50.84605,5.05048,Vlaams-Brabant
3350,Linter,50.84151,5.03661,Vlaams-Brabant
3350,Melkwezer,50.8252947,5.0613545,Vlaams-Brabant
3350,Neerhespen,50.7918055,5.0548854,Vlaams-Brabant
3350,Neerlinter,50.8398055,5.022197,Vlaams-Brabant
3350,Orsmaal-Gussenhoven,50.8033315,5.0620563,Vlaams-Brabant
3350,Overhespen,50.7954085,5.0360799,Vlaams-Brabant
3350,Wommersom,50.8134204,5.017952,Vlaams-Brabant
3360,Bierbeek,50.8279,4.75981,Vlaams-Brabant
3360,Korbeek-Lo,50.8601903,4.7626896,Vlaams-Brabant
3360,Lovenjoel,50.85813,4.78148,Vlaams-Brabant
3360,Opvelp,50.81009,4.79333,Vlaams-Brabant
3370,Boutersem,50.84109,4.83471,Vlaams-Brabant
3370,Kerkom,50.85519,4.87451,Vlaams-Brabant
3370,Neervelp,50.821,4.80811,Vlaams-Brabant
3370,Roosbeek,50.83564,4.86231,Vlaams-Brabant
3370,Vertrijk,50.82976,4.83455,Vlaams-Brabant
3370,Willebringen,50.81281,4.84491,Vlaams-Brabant
3380,Bunsbeek,50.842165,4.9426464,Vlaams-Brabant
3380,Glabbeek,50.8602725,4.9583256,Vlaams-Brabant
3381,Kapellen,50.8852681,4.9501898,Vlaams-Brabant
3384,Attenrode,50.8771186,4.9242614,Vlaams-Brabant
3390,Houwaart,50.9328147,4.8580637,Vlaams-Brabant
3390,Sint-Joris-Winge,50.9077298,4.8768396,Vlaams-Brabant
3390,Tielt,50.940892,4.9046956,Vlaams-Brabant
3390,Tielt-Winge,50.9206968,4.8866603,Vlaams-Brabant
3391,Meensel-Kiezegem,50.8964842,4.9257825,Vlaams-Brabant
3400,Eliksem,50.78487,5.00968,Vlaams-Brabant
3400,Ezemaal,50.77609,5.00016,Vlaams-Brabant
3400,Laar,50.77158,5.02572,Vlaams-Brabant
3400,Landen,50.7628602,5.042102,Vlaams-Brabant
3400,Neerwinden,50.76616,5.04434,Vlaams-Brabant
3400,Overwinden,50.75318,5.0489,Vlaams-Brabant
3400,Rumsdorp,50.76619,5.07623,Vlaams-Brabant
3400,Wange,50.78598,5.03176,Vlaams-Brabant
3401,Waasmont,50.72724,5.06231,Vlaams-Brabant
3401,Walsbets,50.73723,5.08528,Vlaams-Brabant
3401,Walshoutem,50.72373,5.09553,Vlaams-Brabant
3401,Wezeren,50.73008,5.10485,Vlaams-Brabant
3404,Attenhoven,50.76652,5.09308,Vlaams-Brabant
3404,Neerlanden,50.77812,5.07901,Vlaams-Brabant
3440,Budingen,50.8654,5.09811,Vlaams-Brabant
3440,Dormaal,50.80722,5.0985,Vlaams-Brabant
3440,Halle-Booienhoven,50.80475,5.11168,Vlaams-Brabant
3440,Helen-Bos,50.81823,5.0822,Vlaams-Brabant
3440,Zoutleeuw,50.83231,5.10442,Vlaams-Brabant
3450,Geetbets,50.8902757,5.1095641,Vlaams-Brabant
3450,Grazen,50.8752077,5.1308353,Vlaams-Brabant
3454,Rummen,50.8889069,5.1656281,Vlaams-Brabant
3460,Assent,50.9526086,5.0159442,Vlaams-Brabant
3460,Bekkevoort,50.9426234,4.985641,Vlaams-Brabant
3461,Molenbeek-Wersbeek,50.9184738,4.9415359,Vlaams-Brabant
3470,Kortenaken,50.8973765,5.0663974,Vlaams-Brabant
3470,Ransberg,50.8743562,5.0377616,Vlaams-Brabant
3470,Sint-Margriete-Houtem,50.8128004,3.2790522,Vlaams-Brabant
3471,Hoeleden,50.8681697,4.9869044,Vlaams-Brabant
3472,Kersbeek-Miskom,50.8858124,4.9958008,Vlaams-Brabant
3473,Waanrode,50.9161837,5.004692,Vlaams-Brabant
3500,Hasselt,50.9215166,5.3447405,Limburg
3500,Sint-Lambrechts-Herk,50.89841,5.30741,Limburg
3501,Wimmertingen,50.8831759,5.3526453,Limburg
3510,Kermt,50.94767,5.24676,Limburg
3510,Spalbeek,50.9486672,5.2247223,Limburg
3511,Kuringen,50.94387,5.29789,Limburg
3511,Stokrooie,50.96619,5.28134,Limburg
3512,Stevoort,50.9183,5.25316,Limburg
3520,Zonhoven,50.98707,5.36716,Limburg
3530,Helchteren,51.0565512,5.3826921,Limburg
3530,Houthalen,51.0314627,5.3763541,Limburg
3530,Houthalen-Helchteren,51.0312424,5.3765453,Limburg
3540,Berbroek,50.9503306,5.2083451,Limburg
3540,Donk,50.9382225,5.1344391,Limburg
3540,Herk-De-Stad,50.93923,5.16712,Limburg
3540,Schulen,50.959958,5.1904844,Limburg
3545,Halen,50.9485,5.11117,Limburg
3545,Loksbergen,50.9342585,5.0695638,Limburg
3545,Zelem,50.9781579,5.1057744,Limburg
3550,Heusden,51.0354099,5.283057,Limburg
3550,Heusden-Zolder,51.0384819,5.2904127,Limburg
3550,Zolder,51.0229535,5.3097324,Limburg
3560,Linkhout,50.96812,5.13687,Limburg
3560,Lummen,50.98761,5.19511,Limburg
3560,Meldert,50.99867,5.1418,Limburg
3570,Alken,50.87609,5.30767,Limburg
3580,Beringen,51.0473373,5.2214769,Limburg
3581,Beverlo,51.0873,5.21898,Limburg
3582,Koersel,51.05844,5.27176,Limburg
3583,Paal,51.03953,5.17165,Limburg
3590,Diepenbeek,50.91083,5.41336,Limburg
3600,Genk,50.96613,5.5021,Limburg
3620,Gellik,50.8839114,5.6103183,Limburg
3620,Lanaken,50.8919602,5.6398572,Limburg
3620,Neerharen,50.9088851,5.6808314,Limburg
3620,Veldwezelt,50.8677788,5.6305961,Limburg
3621,Rekem,50.9224749,5.6957272,Limburg
3630,Eisden,50.9854566,5.7140769,Limburg
3630,Leut,50.9900244,5.7350908,Limburg
3630,Maasmechelen,50.969278,5.6619185,Limburg
3630,Mechelen-Aan-De-Maas,50.9797588,5.7018567,Limburg
3630,Meeswijk,50.9995012,5.7496822,Limburg
3630,Opgrimbie,50.9432913,5.6809579,Limburg
3630,Vucht,50.9787264,5.7106715,Limburg
3631,Boorsem,50.9408237,5.7197843,Limburg
3631,Uikhoven,50.923677,5.7183356,Limburg
3640,Kessenich,51.15142,5.82297,Limburg
3640,Kinrooi,51.14552,5.74113,Limburg
3640,Molenbeersel,51.17002,5.73758,Limburg
3640,Ophoven,51.12559,5.80204,Limburg
3650,Dilsen,51.03747,5.72215,Limburg
3650,Dilsen-Stokkem,51.0301998,5.7000888,Limburg
3650,Elen,51.06655,5.75083,Limburg
3650,Lanklaar,51.0188,5.7262,Limburg
3650,Rotem,51.05297,5.74118,Limburg
3650,Stokkem,51.02364,5.74418,Limburg
3660,Oudsbergen,51.05,5.6,Limburg
3665,As,50.9997751,5.5715438,Limburg
3668,Niel-Bij-As,51.0176272,5.6045057,Limburg
3670,Ellikom,51.12719,5.52366,Limburg
3670,Meeuwen,51.09867,5.5205,Limburg
3670,Meeuwen-Gruitrode,51.09495,5.54784,Limburg
3670,Neerglabbeek,51.09144,5.61676,Limburg
3670,Wijshagen,51.10461,5.55881,Limburg
3680,Maaseik,51.0983909,5.7837625,Limburg
3680,Neeroeteren,51.0918046,5.6995386,Limburg
3680,Opoeteren,51.0675622,5.6594443,Limburg
3690,Zutendaal,50.93196,5.57227,Limburg
3700,'s Herenelderen,50.8089063,5.5032825,Limburg
3700,Berg,50.79183,5.49494,Limburg
3700,Diets-Heur,50.7453303,5.4828472,Limburg
3700,Haren,50.7979251,5.4020478,Limburg
3700,Henis,50.7992,5.47122,Limburg
3700,Kolmont,50.8041,5.42373,Limburg
3700,Koninksem,50.76531,5.43997,Limburg
3700,Lauw,50.7392355,5.4148753,Limburg
3700,Mal,50.7684738,5.5214638,Limburg
3700,Neerrepen,50.8110492,5.444214,Limburg
3700,Nerem,50.7649963,5.5104893,Limburg
3700,Overrepen,50.8070423,5.4315896,Limburg
3700,Piringen,50.7864119,5.4178871,Limburg
3700,Riksingen,50.8051007,5.4632976,Limburg
3700,Rutten,50.7478825,5.4423901,Limburg
3700,Sluizen,50.7653436,5.5314429,Limburg
3700,Tongeren,50.78419,5.47449,Limburg
3700,Vreren,50.7515842,5.4974649,Limburg
3700,Widooie,50.7713726,5.4084338,Limburg
3717,Herstappe,50.72653,5.426,Limburg
3720,Kortessem,50.8625531,5.3781216,Limburg
3721,Vliermaalroot,50.8637784,5.4240097,Limburg
3722,Wintershoven,50.85263,5.41968,Limburg
3723,Guigoven,50.8390899,5.399157,Limburg
3724,Vliermaal,50.8394948,5.4289047,Limburg
3730,Hoeselt,50.8497352,5.4911243,Limburg
3730,Romershoven,50.855984,5.4598837,Limburg
3730,Sint-Huibrechts-Hern,50.82985,5.4492483,Limburg
3730,Werm,50.8328482,5.4802846,Limburg
3732,Schalkhoven,50.8414306,5.4495653,Limburg
3740,Beverst,50.8902246,5.475171,Limburg
3740,Bilzen,50.8719054,5.5166463,Limburg
3740,Eigenbilzen,50.8746121,5.5746355,Limburg
3740,Grote-Spouwen,50.8315692,5.5519685,Limburg
3740,Hees,50.8466302,5.609372,Limburg
3740,Kleine-Spouwen,50.8381087,5.5483654,Limburg
3740,Mopertingen,50.8606327,5.5756295,Limburg
3740,Munsterbilzen,50.8897326,5.5261669,Limburg
3740,Rijkhoven,50.8329777,5.5150984,Limburg
3740,Rosmeer,50.8456546,5.5806307,Limburg
3740,Waltwilder,50.8658211,5.5441802,Limburg
3742,Martenslinde,50.8565985,5.5332305,Limburg
3746,Hoelbeek,50.8718626,5.5564999,Limburg
3770,Genoelselderen,50.80297,5.538845,Limburg
3770,Herderen,50.8065724,5.5723296,Limburg
3770,Kanne,50.814055,5.6693136,Limburg
3770,Membruggen,50.8141975,5.5343399,Limburg
3770,Millen,50.7856375,5.5561104,Limburg
3770,Riemst,50.8089945,5.6012328,Limburg
3770,Val-Meer,50.7862227,5.59628,Limburg
3770,Vlijtingen,50.8320854,5.5842906,Limburg
3770,Vroenhoven,50.8263221,5.6400304,Limburg
3770,Zichen-Zussen-Bolder,50.7933496,5.6245555,Limburg
3790,Moelingen,50.7570096,5.7134973,Limburg
3790,Sint-Martens-Voeren,50.7485199,5.8122336,Limburg
3790,Voeren,50.7464187,5.8409039,Limburg
3791,Remersdaal,50.7315308,5.8808478,Limburg
3792,Sint-Pieters-Voeren,50.738357,5.8226791,Limburg
3793,Teuven,50.7518324,5.8759546,Limburg
3798,S Gravenvoeren,50.7587829,5.7611628,Limburg
3800,Aalst,50.78166,5.20898,Limburg
3800,Brustem,50.80565,5.22187,Limburg
3800,Engelmanshoven,50.77134,5.25092,Limburg
3800,Gelinden,50.76552,5.26092,Limburg
3800,Groot-Gelmen,50.78525,5.26296,Limburg
3800,Halmaal,50.80589,5.15574,Limburg
3800,Kerkom-Bij-Sint-Truiden,50.77429,5.17787,Limburg
3800,Ordingen,50.81285,5.23521,Limburg
3800,Sint-Truiden,50.8019192,5.2202655,Limburg
3800,Zepperen,50.82116,5.24767,Limburg
3803,Duras,50.83552,5.14638,Limburg
3803,Gorsem,50.83483,5.16195,Limburg
3803,Runkelen,50.84681,5.15088,Limburg
3803,Wilderen,50.81587,5.14136,Limburg
3806,Velm,50.77931,5.13162,Limburg
3830,Berlingen,50.81971,5.31121,Limburg
3830,Wellen,50.8436052,5.3362409,Limburg
3831,Herten,50.8320635,5.3321062,Limburg
3832,Ulbeek,50.84381,5.30465,Limburg
3840,Bommershoven,50.788,5.37904,Limburg
3840,Borgloon,50.80613,5.34302,Limburg
3840,Broekom,50.78238,5.33176,Limburg
3840,Gors-Opleeuw,50.8233766,5.3967118,Limburg
3840,Gotem,50.80515,5.31351,Limburg
3840,Groot-Loon,50.79247,5.36338,Limburg
3840,Haren,50.79274,5.39953,Limburg
3840,Hendrieken,50.79889,5.32811,Limburg
3840,Hoepertingen,50.81235,5.28368,Limburg
3840,Jesseren,50.80594,5.38989,Limburg
3840,Kerniel,50.81632,5.36368,Limburg
3840,Kolmont,50.8031485,5.4230892,Limburg
3840,Kuttekoven,50.809,5.32603,Limburg
3840,Rijkel,50.80989,5.26083,Limburg
3840,Voort,50.79478,5.31971,Limburg
3850,Binderveld,50.8608,5.16481,Limburg
3850,Kozen,50.87496,5.23985,Limburg
3850,Nieuwerkerken,50.86475,5.18869,Limburg
3850,Wijer,50.89838,5.22391,Limburg
3870,Batsheers,50.73855,5.28134,Limburg
3870,Bovelingen,50.7375212,5.2600349,Limburg
3870,Gutshoven,50.77389,5.31713,Limburg
3870,Heers,50.75368,5.30209,Limburg
3870,Heks,50.7701,5.35751,Limburg
3870,Horpmaal,50.76049,5.33567,Limburg
3870,Klein-Gelmen,50.76978,5.27694,Limburg
3870,Mechelen-Bovelingen,50.74054,5.26049,Limburg
3870,Mettekoven,50.78103,5.29062,Limburg
3870,Opheers,50.73972,5.29766,Limburg
3870,Rukkelingen-Loon,50.72784,5.25444,Limburg
3870,Vechmaal,50.76141,5.37466,Limburg
3870,Veulen,50.76371,5.30578,Limburg
3890,Boekhout,50.74568,5.23353,Limburg
3890,Gingelom,50.74988,5.1332,Limburg
3890,Jeuk,50.73427,5.20969,Limburg
3890,Kortijs,50.70745,5.14944,Limburg
3890,Montenaken,50.72101,5.12721,Limburg
3890,Niel-Bij-Sint-Truiden,50.74217,5.14205,Limburg
3890,Vorsen,50.70391,5.16858,Limburg
3891,Borlo,50.74216,5.18135,Limburg
3891,Buvingen,50.75294,5.17767,Limburg
3891,Mielen-Boven-Aalst,50.7554353,5.2150212,Limburg
3891,Muizen,50.76024,5.17944,Limburg
3900,Pelt,51.2333333,5.4333333,Limburg
3910,Sint-Huibrechts-Lille,51.22251,5.49576,Limburg
3920,Lommel,51.2304193,5.3110063,Limburg
3930,Achel,51.25224,5.47953,Limburg
3930,Hamont,51.25272,5.54953,Limburg
3930,Hamont-Achel,51.2697668,5.5154222,Limburg
3940,Hechtel,51.1252349,5.3661124,Limburg
3940,Hechtel-Eksel,51.1105222,5.3295958,Limburg
3941,Eksel,51.1546138,5.3943545,Limburg
3945,Ham,51.1038173,5.1777363,Limburg
3945,Kwaadmechelen,51.10072,5.14416,Limburg
3945,Oostham,51.10373,5.18022,Limburg
3950,Bocholt,51.17291,5.57899,Limburg
3950,Kaulille,51.18717,5.52568,Limburg
3950,Reppel,51.15506,5.56309,Limburg
3960,Beek,51.1558,5.60359,Limburg
3960,Bree,51.14099,5.59802,Limburg
3960,Gerdingen,51.14804,5.5802,Limburg
3960,Opitter,51.11657,5.64972,Limburg
3960,Tongerlo,51.12856,5.66145,Limburg
3970,Leopoldsburg,51.1183684,5.250695,Limburg
3971,Heppen,51.1088735,5.2285739,Limburg
3980,Tessenderlo,51.0642666,5.0881938,Limburg
3990,Grote-Brogel,51.15435,5.50838,Limburg
3990,Kleine-Brogel,51.17258,5.45019,Limburg
3990,Peer,51.1329,5.4536,Limburg
3990,Wijchmaal,51.13556,5.41311,Limburg
4000,Glain,50.64786,5.54357,Luik
4000,LiÈge,50.6350757,5.5628874,Luik
4000,Rocourt,50.67589,5.54583,Luik
4020,Bressoux,50.63994,5.6059,Luik
4020,Jupille-Sur-Meuse,50.64547,5.63488,Luik
4020,LiÈge,50.6423532,5.6279411,Luik
4020,Wandre,50.66715,5.65883,Luik
4030,Grivegnee,50.6216,5.61074,Luik
4031,Angleur,50.61135,5.59943,Luik
4032,Chênee,50.6122,5.6137,Luik
4040,Herstal,50.6787306,5.628885,Luik
4041,Milmort,50.6903579,5.5922106,Luik
4041,Vottem,50.6710455,5.5784697,Luik
4042,Liers,50.693646,5.5638281,Luik
4050,Chaudfontaine,50.5896391,5.6427754,Luik
4051,Vaux-Sous-Chèvremont,50.6010507,5.6318794,Luik
4052,Beaufays,50.5586829,5.6387873,Luik
4053,Embourg,50.5903039,5.6069213,Luik
4075,Csm Liege X,50.5857729,5.6411104,Luik
4100,Boncelles,50.5709023,5.5364671,Luik
4100,Seraing,50.5838596,5.4996297,Luik
4101,Jemeppe-Sur-Meuse,50.6175969,5.4951966,Luik
4102,Ougrée,50.6012358,5.5443411,Luik
4120,Ehein,50.5452937,5.4444311,Luik
4120,NeuprÉ,50.5326636,5.4761468,Luik
4120,Rotheux-Rimière,50.5346824,5.4810832,Luik
4121,Neuville-En-Condroz,50.5524877,5.4511519,Luik
4122,Plainevaux,50.5453134,5.524289,Luik
4130,Esneux,50.5350365,5.5684225,Luik
4130,Tilff,50.5640699,5.5759823,Luik
4140,Dolembreux,50.5360657,5.632889,Luik
4140,Gomzé-Andoumont,50.5474223,5.689683,Luik
4140,Rouvreux,50.4896684,5.650192,Luik
4140,Sprimont,50.511565,5.6460921,Luik
4141,Louveigné,50.5302309,5.7162168,Luik
4160,Anthisnes,50.4820511,5.5194716,Luik
4161,Villers-Aux-Tours,50.4978813,5.5162168,Luik
4162,Hody,50.4864593,5.5038981,Luik
4163,Tavier,50.4963213,5.4705965,Luik
4170,Comblain-Au-Pont,50.4740721,5.562621,Luik
4171,Poulseur,50.508703,5.5785541,Luik
4180,Comblain-Fairon,50.4467427,5.5473277,Luik
4180,Comblain-La-Tour,50.4542848,5.5717044,Luik
4180,Hamoir,50.4384106,5.5492373,Luik
4181,Filot,50.42654,5.5668,Luik
4190,FerriÈres,50.40029,5.60564,Luik
4190,My,50.40543,5.57341,Luik
4190,Vieuxville,50.39379,5.54955,Luik
4190,Werbomont,50.38037,5.68396,Luik
4190,Xhoris,50.44549,5.60436,Luik
4210,Burdinne,50.58411,5.07643,Luik
4210,Hannêche,50.57793,5.04788,Luik
4210,Lamontzée,50.58441,5.09254,Luik
4210,Marneffe,50.58038,5.14674,Luik
4210,Oteppe,50.5805489,5.1265557,Luik
4217,HÉron,50.5526795,5.0922925,Luik
4217,Lavoir,50.550264,5.1196405,Luik
4217,Waret-L'evêque,50.5484795,5.0612138,Luik
4218,Couthuin,50.5314526,5.1224958,Luik
4219,Acosse,50.59277,5.04657,Luik
4219,Ambresin,50.63045,5.03057,Luik
4219,Meeffe,50.6075,5.01821,Luik
4219,Wasseiges,50.61754,5.00162,Luik
4250,Boëlhe,50.68214,5.16646,Luik
4250,Geer,50.6701762,5.1828092,Luik
4250,Hollogne-Sur-Geer,50.6766,5.20541,Luik
4250,Lens-Saint-Servais,50.66357,5.15585,Luik
4252,Omal,50.65584,5.19937,Luik
4253,Darion,50.66458,5.18654,Luik
4254,Ligney,50.66148,5.18227,Luik
4257,Berloz,50.69875,5.21265,Luik
4257,Corswarem,50.71078,5.21324,Luik
4257,Rosoux-Crenwick,50.70741,5.18949,Luik
4260,Avennes,50.6294922,5.1127625,Luik
4260,Braives,50.62823,5.14881,Luik
4260,Ciplet,50.6183437,5.0926809,Luik
4260,Fallais,50.61022,5.17039,Luik
4260,Fumal,50.58661,5.18313,Luik
4260,Ville-En-Hesbaye,50.6157563,5.1159028,Luik
4261,Latinne,50.62475,5.16401,Luik
4263,Tourinne,50.63902,5.17457,Luik
4280,Abolens,50.67302,5.14886,Luik
4280,Avernas-Le-Bauduin,50.69428,5.07861,Luik
4280,Avin,50.62215,5.06932,Luik
4280,Bertrée,50.69521,5.09133,Luik
4280,Blehen,50.6643018,5.1225686,Luik
4280,Cras-Avernas,50.69733,5.12363,Luik
4280,Crehen,50.65993,5.0634,Luik
4280,Grand-Hallet,50.69555,5.03222,Luik
4280,Hannut,50.67215,5.07776,Luik
4280,Lens-Saint-Remy,50.6543514,5.1331258,Luik
4280,Merdorp,50.64832,5.00044,Luik
4280,Moxhe,50.63057,5.08346,Luik
4280,Petit-Hallet,50.68758,5.01721,Luik
4280,Poucet,50.67588,5.11653,Luik
4280,Thisnes,50.6658,5.04677,Luik
4280,Trognée,50.68725,5.12477,Luik
4280,Villers-Le-Peuplier,50.6562,5.09584,Luik
4280,Wansin,50.67898,5.01904,Luik
4287,Lincent,50.7128616,5.0305803,Luik
4287,Pellaines,50.7257187,5.007062,Luik
4287,Racour,50.7396057,5.0289273,Luik
4300,Bettincourt,50.71251,5.23584,Luik
4300,Bleret,50.68929,5.28734,Luik
4300,Bovenistier,50.6678,5.28389,Luik
4300,Grand-Axhe,50.68055,5.22958,Luik
4300,Lantremange,50.71171,5.29561,Luik
4300,Oleye,50.71382,5.28113,Luik
4300,Waremme,50.69757,5.25553,Luik
4317,Aineffe,50.62557,5.25749,Luik
4317,Borlez,50.63325,5.24331,Luik
4317,Celles,50.65415,5.24614,Luik
4317,Faimes,50.66183,5.26009,Luik
4317,Les Waleffes,50.63779,5.22329,Luik
4317,Viemme,50.64679,5.27224,Luik
4340,Awans,50.666861,5.4628633,Luik
4340,Fooz,50.6759853,5.4359267,Luik
4340,Othée,50.7157403,5.4671194,Luik
4340,Villers-L'evêque,50.7044467,5.4395108,Luik
4342,Hognoul,50.6814461,5.4543405,Luik
4347,Fexhe-Le-Haut-Clocher,50.665333,5.3994597,Luik
4347,Freloux,50.6804933,5.4065984,Luik
4347,Noville,50.6599134,5.3822669,Luik
4347,Roloux,50.6510925,5.3974408,Luik
4347,Voroux-Goreux,50.6548149,5.4291442,Luik
4350,Lamine,50.68907,5.33472,Luik
4350,Momalle,50.68569,5.37581,Luik
4350,Pousset,50.69476,5.3042,Luik
4350,Remicourt,50.6802,5.32844,Luik
4351,Hodeige,50.69607,5.34167,Luik
4357,Donceel,50.64577,5.32138,Luik
4357,Haneffe,50.63791,5.32046,Luik
4357,Jeneffe,50.65111,5.35434,Luik
4357,Limont,50.6605976,5.3114031,Luik
4360,Bergilers,50.71543,5.32897,Luik
4360,Grandville,50.72341,5.33881,Luik
4360,Lens-Sur-Geer,50.72114,5.35099,Luik
4360,Oreye,50.73175,5.3577,Luik
4360,Otrange,50.73601,5.37855,Luik
4367,CrisnÉe,50.7173633,5.3977032,Luik
4367,Fize-Le-Marsal,50.7023863,5.3855696,Luik
4367,Kemexhe,50.6973611,5.4075417,Luik
4367,Odeur,50.7064872,5.4164174,Luik
4367,Thys,50.7225445,5.390432,Luik
4400,Awirs,50.5999117,5.4061097,Luik
4400,Chokier,50.5911345,5.441932,Luik
4400,FlÉmalle,50.60187,5.44335,Luik
4400,Flémalle-Grande,50.6087724,5.4765157,Luik
4400,Flémalle-Haute,50.6001541,5.4459559,Luik
4400,Gleixhe,50.6130146,5.3893727,Luik
4400,Ivoz-Ramet,50.5883864,5.4638963,Luik
4400,Mons-Lez-Liège,50.623374,5.4558943,Luik
4420,Montegnée,50.64534,5.51414,Luik
4420,Saint-Nicolas,50.6292407,5.5321898,Luik
4420,Tilleur,50.6194824,5.5201566,Luik
4430,Ans,50.660213,5.5265524,Luik
4431,Loncin,50.66624,5.50521,Luik
4432,Alleur,50.67434,5.51338,Luik
4432,Xhendremael,50.70502,5.4831,Luik
4450,Juprelle,50.7096477,5.5267686,Luik
4450,Lantin,50.6885256,5.5246269,Luik
4450,Slins,50.7277297,5.5637966,Luik
4451,Voroux-Lez-Liers,50.6875929,5.5549161,Luik
4452,Paifve,50.7283378,5.5249034,Luik
4452,Wihogne,50.7271304,5.5066908,Luik
4453,Villers-Saint-Siméon,50.7111071,5.5388369,Luik
4458,Fexhe-Slins,50.72003,5.56954,Luik
4460,Bierset,50.655,5.45092,Luik
4460,Grâce-Berleur,50.64001,5.5019,Luik
4460,GrÂce-Hollogne,50.63412,5.47566,Luik
4460,Hollogne-Aux-Pierres,50.64034,5.47084,Luik
4460,Horion-Hozémont,50.62834,5.37961,Luik
4460,Velroux,50.6429,5.42437,Luik
4470,Saint-Georges-Sur-Meuse,50.60007,5.35756,Luik
4480,Clermont-Sous-Huy,50.569391,5.3918142,Luik
4480,Ehein,50.2997581,6.1266116,Luik
4480,Engis,50.5832252,5.4037136,Luik
4480,Hermalle-Sous-Huy,50.5591378,5.3619152,Luik
4500,Ben-Ahin,50.5019819,5.1852407,Luik
4500,Huy,50.5186775,5.2396514,Luik
4500,Tihange,50.5296991,5.2614551,Luik
4520,Antheit,50.5489545,5.2403601,Luik
4520,Bas-Oha,50.5262731,5.1908989,Luik
4520,Huccorgne,50.5672767,5.1655285,Luik
4520,Moha,50.5476918,5.186209,Luik
4520,Vinalmont,50.5631337,5.2306622,Luik
4520,Wanze,50.534476,5.2141011,Luik
4530,Fize-Fontaine,50.5851,5.28301,Luik
4530,Vaux-Et-Borset,50.61332,5.23207,Luik
4530,Vieux-Waleffe,50.6160879,5.2037631,Luik
4530,Villers-Le-Bouillet,50.5699683,5.2662704,Luik
4530,Warnant-Dreye,50.59523,5.22753,Luik
4537,Bodegnée,50.58593,5.30371,Luik
4537,Chapon-Seraing,50.60841,5.26904,Luik
4537,Seraing-Le-Château,50.62132,5.29829,Luik
4537,Verlaine,50.60633,5.31729,Luik
4540,Amay,50.5482792,5.3096648,Luik
4540,Ampsin,50.5413781,5.2780528,Luik
4540,Flône,50.5575651,5.3360181,Luik
4540,Jehay,50.5724773,5.3247092,Luik
4540,Ombret,50.5421828,5.3332337,Luik
4550,Nandrin,50.507161,5.4198582,Luik
4550,Saint-Séverin,50.5298269,5.4112136,Luik
4550,Villers-Le-Temple,50.5173291,5.3595062,Luik
4550,Yernée-Fraineux,50.529079,5.383914,Luik
4557,Abée,50.4730891,5.3564959,Luik
4557,Fraiture,50.478433,5.4194689,Luik
4557,Ramelot,50.4669858,5.3331598,Luik
4557,Seny,50.4589883,5.4015811,Luik
4557,Soheit-Tinlot,50.4834221,5.3885701,Luik
4557,Tinlot,50.4777355,5.378818,Luik
4560,Bois-Et-Borsu,50.389298,5.3227509,Luik
4560,Clavier,50.4114801,5.3635498,Luik
4560,Les Avins,50.4161066,5.3016015,Luik
4560,Ocquier,50.3956189,5.3937321,Luik
4560,Pailhe,50.4228394,5.2582114,Luik
4560,Terwagne,50.444343,5.3482649,Luik
4570,Marchin,50.46517,5.24204,Luik
4570,Vyle-Et-Tharoul,50.4445,5.26152,Luik
4577,Modave,50.442375,5.3007316,Luik
4577,Outrelouxhe,50.5032627,5.3346305,Luik
4577,Strée-Lez-Huy,50.4931942,5.3218809,Luik
4577,Vierset-Barse,50.4834371,5.2976608,Luik
4590,Ellemelle,50.46752,5.44434,Luik
4590,Ouffet,50.4381,5.46538,Luik
4590,Warzée,50.44929,5.42828,Luik
4600,Lanaye,50.7816616,5.6945353,Luik
4600,Lixhe,50.7567965,5.6793302,Luik
4600,Richelle,50.7136425,5.6952993,Luik
4600,VisÉ,50.7436241,5.6866789,Luik
4601,Argenteau,50.6961555,5.6876046,Luik
4602,Cheratte,50.6837494,5.6707829,Luik
4606,Saint-André,50.6956754,5.7530732,Luik
4607,Berneau,50.7427406,5.7306194,Luik
4607,Bombaye,50.7307281,5.7448822,Luik
4607,Dalhem,50.7205105,5.7331059,Luik
4607,Feneur,50.7042957,5.7149169,Luik
4607,Mortroux,50.7114781,5.7536961,Luik
4608,Neufchâteau,50.719368,5.7757062,Luik
4608,Warsage,50.7355105,5.7691321,Luik
4610,Bellaire,50.6449882,5.6654339,Luik
4610,Beyne-Heusay,50.6216012,5.6558548,Luik
4610,Queue-Du-Bois,50.6373747,5.6789257,Luik
4620,FlÉron,50.6179541,5.6845374,Luik
4621,Retinne,50.6301336,5.6971829,Luik
4623,Magnée,50.5996569,5.6884335,Luik
4624,Romsée,50.610608,5.664504,Luik
4630,Ayeneux,50.6077652,5.716811,Luik
4630,Micheroux,50.6265063,5.72117,Luik
4630,Soumagne,50.6162143,5.7372708,Luik
4630,Tignée,50.65127,5.70201,Luik
4631,Evegnée,50.64217,5.70875,Luik
4632,Cérexhe-Heuseux,50.6541483,5.7264702,Luik
4633,Melen,50.6460486,5.7359996,Luik
4650,Chaineux,50.6316775,5.8344045,Luik
4650,Grand-Rechain,50.6074436,5.8099828,Luik
4650,Herve,50.6317827,5.8425762,Luik
4650,Julémont,50.6860172,5.7713927,Luik
4651,Battice,50.6474662,5.8207169,Luik
4652,Xhendelesse,50.6050929,5.7782579,Luik
4653,Bolland,50.66107,5.76037,Luik
4654,Charneux,50.6698339,5.8041681,Luik
4670,BlÉgny,50.6792685,5.7246643,Luik
4670,Mortier,50.6850484,5.7434908,Luik
4670,Trembleur,50.695398,5.7264581,Luik
4671,Barchon,50.66866,5.69992,Luik
4671,Housse,50.6789837,5.6910818,Luik
4671,Saive,50.6530557,5.6858939,Luik
4672,Saint-Remy,50.6954433,5.7044415,Luik
4680,Hermée,50.7079438,5.6184661,Luik
4680,Oupeye,50.7127029,5.6261513,Luik
4681,Hermalle-Sous-Argenteau,50.7112191,5.6800351,Luik
4682,Heure-Le-Romain,50.7313994,5.6332813,Luik
4682,Houtain-Saint-Siméon,50.7398627,5.6118142,Luik
4683,Vivegnis,50.6948109,5.6467328,Luik
4684,Haccourt,50.7303379,5.6688849,Luik
4690,Bassenge,50.7591324,5.6100672,Luik
4690,Boirs,50.7509508,5.5800373,Luik
4690,Eben-Emael,50.7933169,5.6656377,Luik
4690,Glons,50.7520728,5.545018,Luik
4690,Roclenge-Sur-Geer,50.7569143,5.595398,Luik
4690,Wonck,50.7669118,5.6358592,Luik
4700,Eupen,50.6133173,6.1011205,Luik
4701,Kettenis,50.6472977,6.046896,Luik
4710,Lontzen,50.6816693,5.9875637,Luik
4711,Walhorn,50.67469,6.04549,Luik
4720,La Calamine,50.7193507,6.0118307,Luik
4721,Neu-Moresnet,50.7160816,6.0213233,Luik
4728,Hergenrath,50.7089534,6.0314237,Luik
4730,Hauset,50.7104323,6.0696188,Luik
4730,Raeren,50.6770198,6.1097331,Luik
4731,Eynatten,50.6921704,6.0834561,Luik
4750,Butgenbach,50.4266339,6.2042885,Luik
4750,Elsenborn,50.4806086,6.2513662,Luik
4760,Bullange,50.3739957,6.3042715,Luik
4760,Manderfeld,50.3302124,6.3412395,Luik
4761,Rocherath,50.4365286,6.3005753,Luik
4770,AmblÈve,50.3542165,6.1694635,Luik
4770,Meyerode,50.3179876,6.1897305,Luik
4771,Heppenbach,50.3627954,6.2185552,Luik
4780,Recht,50.3340631,6.043093,Luik
4780,Saint-Vith,50.2797224,6.130456,Luik
4782,Schoenberg,50.2887806,6.2652657,Luik
4783,Lommersweiler,50.2388377,6.1655027,Luik
4784,Crombach,50.2594213,6.068955,Luik
4790,Burg-Reuland,50.1966077,6.1376625,Luik
4790,Reuland,50.1966077,6.1376625,Luik
4791,Thommen,50.21821,6.07391,Luik
4800,Ensival,50.5812596,5.8460072,Luik
4800,Lambermont,50.5904288,5.8323452,Luik
4800,Petit-Rechain,50.6144,5.83447,Luik
4800,Polleur,50.5347397,5.8802762,Luik
4800,Verviers,50.5910337,5.8655774,Luik
4801,Stembert,50.5923294,5.8928874,Luik
4802,Heusy,50.5745445,5.8662821,Luik
4820,Dison,50.6125223,5.853437,Luik
4821,Andrimont,50.6139966,5.8844864,Luik
4830,Limbourg,50.6036651,5.9357239,Luik
4831,Bilstain,50.6243826,5.9198628,Luik
4834,Goé,50.6061874,5.9567645,Luik
4837,Baelen,50.6301763,5.9692046,Luik
4837,Membach,50.61905,5.99501,Luik
4840,Welkenraedt,50.6568973,5.9630388,Luik
4841,Henri-Chapelle,50.669138,5.9271962,Luik
4845,Jalhay,50.5588226,5.9662952,Luik
4845,Sart-Lez-Spa,50.516858,5.9319544,Luik
4850,Montzen,50.707579,5.9619403,Luik
4850,Moresnet,50.721135,5.9889959,Luik
4850,PlombiÈres,50.7193635,5.9635214,Luik
4851,Gemmenich,50.7453476,5.9943856,Luik
4851,Sippenaeken,50.750727,5.9337213,Luik
4852,Hombourg,50.7233365,5.9211923,Luik
4860,Cornesse,50.5723031,5.7955711,Luik
4860,Pepinster,50.5682638,5.8033087,Luik
4860,Wegnez,50.5792278,5.8166757,Luik
4861,Soiron,50.591806,5.7904364,Luik
4870,Forêt,50.5835849,5.6998538,Luik
4870,Fraipont,50.5656406,5.7238334,Luik
4870,Nessonvaux,50.5729394,5.7370077,Luik
4870,Trooz,50.5786521,5.6730779,Luik
4877,Olne,50.5900615,5.7465679,Luik
4880,Aubel,50.7021296,5.8592295,Luik
4890,Clermont,50.6590232,5.8845514,Luik
4890,Thimister,50.654195,5.8640069,Luik
4890,Thimister-Clermont,50.6542116,5.8640147,Luik
4900,Spa,50.49243,5.86432,Luik
4910,La Reid,50.4893888,5.790589,Luik
4910,Polleur,50.5390463,5.8807055,Luik
4910,Theux,50.5350997,5.8141884,Luik
4920,Aywaille,50.47318,5.67584,Luik
4920,Ernonheid,50.40338,5.6663,Luik
4920,Harzé,50.44096,5.66651,Luik
4920,Louveigné,50.48399,5.71747,Luik
4920,Sougné-Remouchamps,50.47987,5.71185,Luik
4950,Faymonville,50.4027387,6.1408548,Luik
4950,Robertville,50.4545013,6.122142,Luik
4950,Sourbrodt,50.47895,6.11175,Luik
4950,Waimes,50.4148914,6.1115604,Luik
4960,Bellevaux-Ligneuville,50.39067,6.00577,Luik
4960,Bevercé,50.4409143,6.035721,Luik
4960,Malmedy,50.4246396,6.0283276,Luik
4970,Francorchamps,50.4543456,5.9522139,Luik
4970,Stavelot,50.3941099,5.9304135,Luik
4980,Fosse,50.3411966,5.8412377,Luik
4980,Trois-Ponts,50.3528769,5.9177072,Luik
4980,Wanne,50.3550332,5.921651,Luik
4983,Basse-Bodeux,50.3565744,5.8305234,Luik
4987,Chevron,50.3802778,5.7325146,Luik
4987,La Gleize,50.41126,5.8491514,Luik
4987,Lorcé,50.4162542,5.7350483,Luik
4987,Rahier,50.3848697,5.7807855,Luik
4987,Stoumont,50.4068434,5.8086125,Luik
4990,Arbrefontaine,50.30276,5.83541,Luik
4990,Bra,50.32339,5.7323,Luik
4990,Lierneux,50.2848031,5.7950312,Luik
5000,Beez,50.4686653,4.911834,Namen
5000,Namur,50.459267,4.8504571,Namen
5001,Belgrade,50.4707019,4.8256487,Namen
5002,Saint-Servais,50.4766054,4.8344548,Namen
5003,Saint-Marc,50.4915149,4.847325,Namen
5004,Bouge,50.4719872,4.8915392,Namen
5012,Parlement Wallon,50.4608774,4.8678855,Namen
5020,Champion,50.4958176,4.9015766,Namen
5020,Daussoulx,50.5181967,4.8886216,Namen
5020,Flawinne,50.45738,4.81096,Namen
5020,Malonne,50.43896,4.79566,Namen
5020,Suarlée,50.48195,4.77885,Namen
5020,Temploux,50.48526,4.75434,Namen
5020,Vedrin,50.5022173,4.8760877,Namen
5021,Boninne,50.4953566,4.9324641,Namen
5022,Cognelée,50.5148464,4.9070712,Namen
5024,Gelbressée,50.5055017,4.956101,Namen
5024,Marche-Les-Dames,50.4863306,4.9602568,Namen
5030,Beuzet,50.53391,4.74584,Namen
5030,Ernage,50.5923601,4.6719178,Namen
5030,Gembloux,50.5742906,4.7016542,Namen
5030,Grand-Manil,50.55707,4.67548,Namen
5030,Lonzée,50.55299,4.72637,Namen
5030,Sauvenière,50.58065,4.72348,Namen
5031,Grand-Leez,50.58374,4.77469,Namen
5032,Bossière,50.518,4.69579,Namen
5032,Bothey,50.52043,4.64894,Namen
5032,Corroy-Le-Château,50.53877,4.66279,Namen
5032,Isnes,50.50598,4.72827,Namen
5032,Mazy,50.51048,4.67263,Namen
5060,Arsimont,50.42853,4.6388,Namen
5060,Auvelais,50.44938,4.63024,Namen
5060,Falisolle,50.41776,4.62087,Namen
5060,Keumiée,50.4526305,4.5960362,Namen
5060,Moignelée,50.44542,4.58455,Namen
5060,Sambreville,50.446734,4.630735,Namen
5060,Tamines,50.43353,4.60819,Namen
5060,Velaine-Sur-Sambre,50.4674,4.61402,Namen
5070,Aisemont,50.40504,4.65209,Namen
5070,Fosses-La-Ville,50.39455,4.69617,Namen
5070,Le Roux,50.389,4.62398,Namen
5070,Sart-Eustache,50.3754,4.60259,Namen
5070,Sart-Saint-Laurent,50.40224,4.74169,Namen
5070,Vitrival,50.39859,4.65956,Namen
5080,Emines,50.51212,4.84469,Namen
5080,La BruyÈre,50.507393,4.8150906,Namen
5080,Rhisnes,50.50626,4.80568,Namen
5080,Villers-Lez-Heest,50.52998,4.84558,Namen
5080,Warisoulx,50.5366,4.86659,Namen
5081,Bovesse,50.51917,4.78061,Namen
5081,Meux,50.55196,4.80103,Namen
5081,Saint-Denis-Bovesse,50.53532,4.78185,Namen
5100,Dave,50.4143728,4.8877835,Namen
5100,Jambes,50.4563673,4.871877,Namen
5100,Naninne,50.4185928,4.9239001,Namen
5100,Wépion,50.421206,4.8633172,Namen
5100,Wierde,50.4260307,4.9509671,Namen
5101,Erpent,50.4516025,4.9050011,Namen
5101,Lives-Sur-Meuse,50.4654959,4.9241044,Namen
5101,Loyers,50.462857,4.9517789,Namen
5140,Boignée,50.50024,4.60938,Namen
5140,Ligny,50.51228,4.57702,Namen
5140,Sombreffe,50.52871,4.5884,Namen
5140,Tongrinne,50.5155,4.6253,Namen
5150,Floreffe,50.43405,4.75922,Namen
5150,Floriffoux,50.45198,4.77161,Namen
5150,Franière,50.43592,4.7328,Namen
5150,Soye,50.44936,4.73041,Namen
5170,Arbre,50.36612,4.82126,Namen
5170,Bois-De-Villers,50.39019,4.82408,Namen
5170,Lesve,50.37686,4.77791,Namen
5170,Lustin,50.37825,4.89876,Namen
5170,Profondeville,50.3756621,4.8674002,Namen
5170,Rivière,50.35655,4.87453,Namen
5190,Balâtre,50.5003106,4.6395677,Namen
5190,Ham-Sur-Sambre,50.4426813,4.6735065,Namen
5190,Jemeppe-Sur-Sambre,50.4630907,4.6786862,Namen
5190,Mornimont,50.4563509,4.7043225,Namen
5190,Moustier-Sur-Sambre,50.4568755,4.6944478,Namen
5190,Onoz,50.4920447,4.6697337,Namen
5190,Saint-Martin,50.5018823,4.6473489,Namen
5190,Spy,50.4796529,4.7042186,Namen
5300,Andenne,50.4911522,5.0964543,Namen
5300,Bonneville,50.4719693,5.0369958,Namen
5300,Coutisse,50.4629612,5.1166532,Namen
5300,Landenne,50.5149815,5.0669512,Namen
5300,Maizeret,50.4596144,4.9790011,Namen
5300,Namêche,50.4719758,4.9945844,Namen
5300,Sclayn,50.4896345,5.0277233,Namen
5300,Seilles,50.5002414,5.0931162,Namen
5300,Thon,50.4633535,5.0145871,Namen
5300,Vezin,50.4958205,5.0087682,Namen
5310,Aische-En-Refail,50.59948,4.83819,Namen
5310,Bolinne,50.60083,4.9294,Namen
5310,Boneffe,50.62508,4.95508,Namen
5310,Branchon,50.629102,4.971115,Namen
5310,Dhuy,50.55964,4.8593,Namen
5310,EghezÉe,50.59265,4.90365,Namen
5310,Hanret,50.58092,4.94767,Namen
5310,Leuze,50.54604,4.90619,Namen
5310,Liernu,50.58369,4.83077,Namen
5310,Longchamps,50.57787,4.89262,Namen
5310,Mehaigne,50.59443,4.87607,Namen
5310,Noville-Sur-Méhaigne,50.60924,4.89308,Namen
5310,Saint-Germain,50.57266,4.8422,Namen
5310,Taviers,50.61733,4.93154,Namen
5310,Upigny,50.57163,4.87223,Namen
5310,Waret-La-Chaussée,50.54281,4.92644,Namen
5330,Assesse,50.3777222,4.9421604,Namen
5330,Maillen,50.377213,4.9707476,Namen
5330,Sart-Bernard,50.40244,4.96308,Namen
5332,Crupet,50.35009,4.96124,Namen
5333,Sorinne-La-Longue,50.3893,5.02551,Namen
5334,Florée,50.3742,5.06885,Namen
5336,Courrière,50.37994,4.98532,Namen
5340,Faulx-Les-Tombes,50.42693,5.02089,Namen
5340,Gesves,50.4024613,5.0755536,Namen
5340,Haltinne,50.4511,5.07501,Namen
5340,Mozet,50.44425,4.98537,Namen
5340,Sorée,50.3973972,5.1200129,Namen
5350,Evelette,50.41189,5.17364,Namen
5350,Ohey,50.4145401,5.1673861,Namen
5351,Haillot,50.44215,5.1542,Namen
5352,Perwez-Haillot,50.45213,5.17174,Namen
5353,Goesnes,50.44001,5.22094,Namen
5354,Jallet,50.44328,5.18338,Namen
5360,Hamois,50.3453749,5.0922322,Namen
5360,Natoye,50.34301,5.05804,Namen
5361,Mohiville,50.31812,5.1924,Namen
5361,Scy,50.30479,5.20718,Namen
5362,Achet,50.33299,5.17493,Namen
5363,Emptinne,50.32543,5.12309,Namen
5364,Schaltin,50.35894,5.12452,Namen
5370,Barvaux-Condroz,50.32891,5.2609,Namen
5370,Flostoy,50.3888599,5.1838818,Namen
5370,Havelange,50.3647074,5.2395547,Namen
5370,Jeneffe,50.35407,5.24005,Namen
5370,Porcheresse,50.34012,5.24195,Namen
5370,Verlée,50.36784,5.27936,Namen
5372,Méan,50.36323,5.33634,Namen
5374,Maffe,50.35351,5.3114,Namen
5376,Miécret,50.3668751,5.2486422,Namen
5377,Baillonville,50.2899325,5.338665,Namen
5377,Bonsin,50.3740147,5.3826276,Namen
5377,Heure,50.2942459,5.2964444,Namen
5377,Hogne,50.2490867,5.2797819,Namen
5377,Nettinne,50.2907723,5.2588027,Namen
5377,Noiseux,50.2991028,5.3746071,Namen
5377,Sinsin,50.2748559,5.254788,Namen
5377,Somme-Leuze,50.3399215,5.3700866,Namen
5377,Waillet,50.2604353,5.304524,Namen
5380,Bierwart,50.55582,5.03628,Namen
5380,Cortil-Wodon,50.56767,4.95689,Namen
5380,Fernelmont,50.552108,4.9855088,Namen
5380,Forville,50.57391,4.99828,Namen
5380,Franc-Waret,50.52081,4.98141,Namen
5380,Hemptinne,50.60327,4.98838,Namen
5380,Hingeon,50.52545,5.00687,Namen
5380,Marchovelette,50.52285,4.94149,Namen
5380,Noville-Les-Bois,50.55676,4.98419,Namen
5380,Pontillas,50.54909,5.02104,Namen
5380,Tillier,50.54459,4.94581,Namen
5500,Anseremme,50.2396,4.89951,Namen
5500,Bouvignes-Sur-Meuse,50.2721114,4.89926,Namen
5500,Dinant,50.2340362,4.9169434,Namen
5500,Dréhance,50.23702,4.94406,Namen
5500,Falmagne,50.1999538,4.8977622,Namen
5500,Falmignoul,50.2054304,4.8926759,Namen
5500,Furfooz,50.2239409,4.9588076,Namen
5501,Lisogne,50.2808581,4.9710519,Namen
5502,Thynes,50.2795875,4.9871679,Namen
5503,Sorinnes,50.2592464,4.9789243,Namen
5504,Foy-Notre-Dame,50.2469536,4.9898697,Namen
5520,Anthée,50.2400205,4.7612111,Namen
5520,Onhaye,50.2425159,4.8379125,Namen
5521,Serville,50.2501038,4.78061,Namen
5522,Falaen,50.278965,4.7936119,Namen
5523,Sommière,50.2737609,4.8428128,Namen
5523,Weillen,50.2605516,4.8251335,Namen
5524,Gerin,50.2460666,4.8161879,Namen
5530,Dorinne,50.31501,4.97588,Namen
5530,Durnal,50.3363,4.98662,Namen
5530,Evrehailles,50.32046,4.91206,Namen
5530,Godinne,50.34788,4.87325,Namen
5530,Houx,50.30173,4.89834,Namen
5530,Mont,50.35335,4.90291,Namen
5530,Purnode,50.31218,4.94403,Namen
5530,Spontin,50.32233,5.00575,Namen
5530,Yvoir,50.3269678,4.8778583,Namen
5537,AnhÉe,50.31064,4.87829,Namen
5537,Annevoie-Rouillon,50.34738,4.84882,Namen
5537,Bioul,50.33112,4.7961,Namen
5537,Denée,50.31862,4.75223,Namen
5537,Haut-Le-Wastia,50.30597,4.84293,Namen
5537,Sosoye,50.29518,4.78183,Namen
5537,Warnant,50.32284,4.8444,Namen
5540,HastiÈre,50.2127777,4.808074,Namen
5540,Hastière-Lavaux,50.2183,4.82455,Namen
5540,Hermeton-Sur-Meuse,50.19776,4.81672,Namen
5540,Waulsort,50.20362,4.86621,Namen
5541,Hastière-Par-Delà,50.21479,4.82904,Namen
5542,Blaimont,50.19197,4.84295,Namen
5543,Heer,50.16347,4.83208,Namen
5544,Agimont,50.16573,4.79594,Namen
5550,Alle,49.8420224,4.9696522,Namen
5550,Bagimont,49.8241864,4.8751812,Namen
5550,Bohan,49.8635093,4.8853198,Namen
5550,Chairière,49.8620429,4.9511929,Namen
5550,Laforet,49.8632092,4.9299586,Namen
5550,Membre,49.8657061,4.9019226,Namen
5550,Mouzaive,49.85379,4.96318,Namen
5550,Nafraiture,49.910876,4.9174164,Namen
5550,Orchimont,49.8936202,4.9282121,Namen
5550,Pussemange,49.81127,4.86835,Namen
5550,Sugny,49.8143846,4.9019318,Namen
5550,Vresse-Sur-Semois,49.8725882,4.9326558,Namen
5555,Baillamont,49.8994166,5.026417,Namen
5555,Bellefontaine,49.917607,4.9726249,Namen
5555,BiÈvre,49.9414154,5.0165882,Namen
5555,Cornimont,49.8622424,4.9983726,Namen
5555,Graide,49.951486,5.0661187,Namen
5555,Gros-Fays,49.8704212,4.9831444,Namen
5555,Monceau-En-Ardenne,49.9057594,4.9877688,Namen
5555,Naomé,49.9220528,5.089279,Namen
5555,Oizy,49.8936411,5.0091739,Namen
5555,Petit-Fays,49.9020888,4.9686731,Namen
5560,Ciergnon,50.167647,5.0881633,Namen
5560,Finnevaux,50.1580053,4.944139,Namen
5560,Houyet,50.1694226,4.9798922,Namen
5560,Hulsonniaux,50.2013267,4.9465427,Namen
5560,Mesnil-Eglise,50.16494,4.96349,Namen
5560,Mesnil-Saint-Blaise,50.1688094,4.885058,Namen
5561,Celles,50.23038,5.0057628,Namen
5562,Custinne,50.2109877,5.0490632,Namen
5563,Hour,50.1617078,5.0403821,Namen
5564,Wanlin,50.1595134,5.0620298,Namen
5570,Baronville,50.1271366,4.9443786,Namen
5570,Beauraing,50.1003926,4.9059609,Namen
5570,Dion,50.1177827,4.8891263,Namen
5570,Felenne,50.0681342,4.8491337,Namen
5570,Feschaux,50.1511238,4.914895,Namen
5570,Honnay,50.0816488,5.0393176,Namen
5570,Javingue,50.1022158,4.9190727,Namen
5570,Vonêche,50.0614965,4.9780885,Namen
5570,Wancennes,50.091743,4.9616119,Namen
5570,Winenne,50.0967777,4.8939936,Namen
5571,Wiesme,50.1484609,4.9773685,Namen
5572,Focant,50.1317614,5.0379324,Namen
5573,Martouzin-Neuville,50.117386,5.0055552,Namen
5574,Pondrôme,50.0988595,5.010168,Namen
5575,Bourseigne-Neuve,50.02487,4.85486,Namen
5575,Bourseigne-Vieille,50.02212,4.87024,Namen
5575,Gedinne,49.98081,4.93707,Namen
5575,Houdremont,49.94148,4.94426,Namen
5575,Louette-Saint-Denis,49.95837,4.95786,Namen
5575,Louette-Saint-Pierre,49.96054,4.92748,Namen
5575,Malvoisin,50.01107,4.96239,Namen
5575,Patignies,50.00003,4.9513,Namen
5575,Rienne,49.99239,4.88446,Namen
5575,Sart-Custinne,50.00147,4.91675,Namen
5575,Vencimont,50.03169,4.92063,Namen
5575,Willerzie,49.98778,4.85083,Namen
5576,Froidfontaine,50.0595602,4.9997173,Namen
5580,Ave-Et-Auffe,50.11272,5.14246,Namen
5580,Buissonville,50.2164,5.20186,Namen
5580,Eprave,50.14399,5.15913,Namen
5580,Han-Sur-Lesse,50.12543,5.18756,Namen
5580,Jemelle,50.1625,5.26623,Namen
5580,Lavaux-Saint-Anne,50.1152632,5.0932728,Namen
5580,Lessive,50.13921,5.14662,Namen
5580,Mont-Gauthier,50.21029,5.12273,Namen
5580,Rochefort,50.1596036,5.2221665,Namen
5580,Villers-Sur-Lesse,50.15352,5.11367,Namen
5580,Wavreille,50.12104,5.24848,Namen
5589,Jemelle,50.1357728,5.2796237,Namen
5590,Achêne,50.2666792,5.0456342,Namen
5590,Braibant,50.3131545,5.0606598,Namen
5590,Chevetogne,50.2230794,5.1217844,Namen
5590,Ciney,50.2956773,5.1008307,Namen
5590,Conneux,50.2500686,5.0596284,Namen
5590,Haversin,50.24919,5.19571,Namen
5590,Leignon,50.2677216,5.1098975,Namen
5590,Pessoux,50.2830932,5.170961,Namen
5590,Serinchamps,50.2309395,5.2289113,Namen
5590,Sovet,50.2964987,5.0364195,Namen
5600,Fagnolle,50.10493,4.56083,Namen
5600,Franchimont,50.18875,4.62824,Namen
5600,Jamagne,50.21732,4.53081,Namen
5600,Jamiolle,50.20988,4.50666,Namen
5600,Merlemont,50.17645,4.6111,Namen
5600,Neuville,50.17249,4.51452,Namen
5600,Omezée,50.19267,4.70174,Namen
5600,Philippeville,50.1958462,4.5430358,Namen
5600,Roly,50.13591,4.53736,Namen
5600,Romedenne,50.17113,4.6987,Namen
5600,Samart,50.17821,4.53417,Namen
5600,Sart-En-Fagne,50.1587,4.62201,Namen
5600,Sautour,50.17018,4.56043,Namen
5600,Surice,50.18249,4.70017,Namen
5600,Villers-En-Fagne,50.14721,4.58566,Namen
5600,Villers-Le-Gambon,50.19129,4.60944,Namen
5600,Vodecée,50.19796,4.59308,Namen
5620,Corenne,50.25227,4.68021,Namen
5620,Flavion,50.2496,4.71824,Namen
5620,Florennes,50.2451448,4.6468567,Namen
5620,Hemptinne-Lez-Florennes,50.2451448,4.6468567,Namen
5620,Morville,50.23047,4.74186,Namen
5620,Rosée,50.23307,4.68959,Namen
5620,Saint-Aubin,50.24851,4.57657,Namen
5621,Hanzinelle,50.29571,4.55989,Namen
5621,Hanzinne,50.31294,4.54547,Namen
5621,Morialmé,50.27498,4.56593,Namen
5621,Thy-Le-Baudouin,50.29619,4.52296,Namen
5630,Cerfontaine,50.1514001,4.3847036,Namen
5630,Daussois,50.2195367,4.4563959,Namen
5630,Senzeille,50.176804,4.4646004,Namen
5630,Silenrieux,50.2245931,4.4121787,Namen
5630,Soumoy,50.1899126,4.4382183,Namen
5630,Villers-Deux-Eglises,50.1899091,4.4824262,Namen
5640,Biesme,50.33987,4.61024,Namen
5640,Biesmerée,50.2974,4.68005,Namen
5640,Graux,50.32501,4.71972,Namen
5640,Mettet,50.3174893,4.6464726,Namen
5640,Oret,50.30206,4.61574,Namen
5640,Saint-Gérard,50.34597,4.7407,Namen
5641,Furnaux,50.30803,4.70497,Namen
5644,Ermeton-Sur-Biert,50.29689,4.71906,Namen
5646,Stave,50.28002,4.65924,Namen
5650,Castillon,50.2466601,4.3523863,Namen
5650,Chastrès,50.2679644,4.4596788,Namen
5650,Clermont,50.2603112,4.3171266,Namen
5650,Fontenelle,50.2479938,4.3837031,Namen
5650,Fraire,50.2596787,4.5084637,Namen
5650,Pry,50.2710178,4.4304388,Namen
5650,Vogenée,50.240418,4.452607,Namen
5650,Walcourt,50.2537328,4.4267048,Namen
5650,Yves-Gomezée,50.2390518,4.4936392,Namen
5651,Berzée,50.28867,4.40151,Namen
5651,Gourdinne,50.29004,4.4578,Namen
5651,Laneffe,50.27743,4.4909,Namen
5651,Rognée,50.26712,4.39011,Namen
5651,Somzée,50.29517,4.48336,Namen
5651,Tarcienne,50.3116,4.49637,Namen
5651,Thy-Le-Château,50.28077,4.43265,Namen
5660,Aublain,50.0682518,4.4087076,Namen
5660,Boussu-En-Fagne,50.0758726,4.4713875,Namen
5660,Brûly,49.9686542,4.5275589,Namen
5660,Brûly-De-Pesche,50.0016768,4.4649941,Namen
5660,Couvin,50.05197,4.49457,Namen
5660,Cul-Des-Sarts,49.9625539,4.4547813,Namen
5660,Dailly,50.0579064,4.4359678,Namen
5660,Frasnes,50.0772664,4.5087651,Namen
5660,Gonrieux,50.0361913,4.4262251,Namen
5660,Mariembourg,50.0947687,4.5218479,Namen
5660,Pesche,50.0423072,4.4586142,Namen
5660,Petigny,50.058688,4.5319453,Namen
5660,Petite-Chapelle,49.9499922,4.5089898,Namen
5660,Presgaux,50.0248577,4.4197205,Namen
5670,Dourbes,50.0916165,4.5919434,Namen
5670,Le Mesnil,50.0313519,4.671644,Namen
5670,Mazée,50.1010872,4.6958496,Namen
5670,Nismes,50.0748018,4.5483364,Namen
5670,Oignies-En-Thiérache,50.0238633,4.6392754,Namen
5670,Olloy-Sur-Viroin,50.0720497,4.607452,Namen
5670,Treignes,50.092667,4.6708276,Namen
5670,Vierves-Sur-Viroin,50.0802842,4.635318,Namen
5670,Viroinval,50.0714722,4.6059942,Namen
5680,Doische,50.1362261,4.7461199,Namen
5680,Gimnée,50.13149,4.70925,Namen
5680,Gochenée,50.183851,4.7599339,Namen
5680,Matagne-La-Grande,50.12081,4.61146,Namen
5680,Matagne-La-Petite,50.11684,4.638,Namen
5680,Niverlée,50.11806,4.69985,Namen
5680,Romerée,50.13585,4.67538,Namen
5680,Soulme,50.18873,4.73735,Namen
5680,Vaucelles,50.11286,4.74345,Namen
5680,Vodelée,50.17245,4.73232,Namen
6000,Charleroi,50.4108998,4.4446709,Henegouwen
6001,Marcinelle,50.4001435,4.4330445,Henegouwen
6010,Couillet,50.3914084,4.4589418,Henegouwen
6020,Dampremy,50.4171274,4.4308155,Henegouwen
6030,Goutroux,50.4068438,4.3607435,Henegouwen
6030,Marchienne-Au-Pont,50.4055222,4.3957235,Henegouwen
6031,Monceau-Sur-Sambre,50.4166487,4.376359,Henegouwen
6032,Mont-Sur-Marchienne,50.3886584,4.405458,Henegouwen
6040,Jumet,50.4427249,4.4370311,Henegouwen
6041,Gosselies,50.4689729,4.4322409,Henegouwen
6042,Lodelinsart,50.4315093,4.44718,Henegouwen
6043,Ransart,50.4617198,4.4760083,Henegouwen
6044,Roux,50.4411759,4.3859913,Henegouwen
6060,Gilly,50.4240349,4.4785997,Henegouwen
6061,Montignies-Sur-Sambre,50.4018544,4.4777803,Henegouwen
6099,Charleroi X,50.3845193,4.4636041,Henegouwen
6110,Montigny-Le-Tilleul,50.3744413,4.3779578,Henegouwen
6111,Landelies,50.3798,4.35075,Henegouwen
6120,Cour-Sur-Heure,50.3002201,4.3894514,Henegouwen
6120,Ham-Sur-Heure,50.3221203,4.3880774,Henegouwen
6120,Jamioulx,50.3528183,4.4127538,Henegouwen
6120,Marbaix,50.329886,4.369811,Henegouwen
6120,Nalinnes,50.3241156,4.4465124,Henegouwen
6140,Fontaine-L'evÊque,50.4100558,4.3249526,Henegouwen
6141,Forchies-La-Marche,50.43664,4.32036,Henegouwen
6142,Leernes,50.39821,4.33217,Henegouwen
6150,Anderlues,50.40604,4.28394,Henegouwen
6180,Courcelles,50.4577042,4.3662504,Henegouwen
6181,Gouy-Lez-Piéton,50.4908073,4.3342955,Henegouwen
6182,Souvret,50.4506298,4.3497084,Henegouwen
6183,Trazegnies,50.4626925,4.3301766,Henegouwen
6200,Bouffioulx,50.39072,4.51635,Henegouwen
6200,ChÂtelet,50.4061,4.52786,Henegouwen
6200,Châtelineau,50.41533,4.51986,Henegouwen
6210,Frasnes-Lez-Gosselies,50.5314655,4.4461637,Henegouwen
6210,Les Bons Villers,50.5427462,4.4476802,Henegouwen
6210,Rèves,50.5377515,4.4144975,Henegouwen
6210,Villers-Perwin,50.5262517,4.4780447,Henegouwen
6210,Wayaux,50.4899237,4.4736079,Henegouwen
6211,Mellet,50.5050113,4.4850788,Henegouwen
6220,Fleurus,50.4771076,4.5363885,Henegouwen
6220,Heppignies,50.4845,4.49575,Henegouwen
6220,Lambusart,50.45453,4.55332,Henegouwen
6220,Wangenies,50.47957,4.51986,Henegouwen
6221,Saint-Amand,50.50637,4.54986,Henegouwen
6222,Brye,50.52397,4.55809,Henegouwen
6223,Wagnelée,50.52301,4.53371,Henegouwen
6224,Wanfercée-Baulet,50.47274,4.58783,Henegouwen
6230,Buzet,50.5381032,4.3667175,Henegouwen
6230,Obaix,50.5424526,4.3175513,Henegouwen
6230,Pont-À-Celles,50.513555,4.3581617,Henegouwen
6230,Thiméon,50.485343,4.4297958,Henegouwen
6230,Viesville,50.4897213,4.4088253,Henegouwen
6238,Liberchies,50.5138157,4.4215203,Henegouwen
6238,Luttre,50.5097805,4.3914653,Henegouwen
6240,Farciennes,50.42994,4.5415,Henegouwen
6240,Pironchamps,50.4324843,4.5364464,Henegouwen
6250,Aiseau,50.41114,4.58644,Henegouwen
6250,Aiseau-Presles,50.4100045,4.586698,Henegouwen
6250,Pont-De-Loup,50.41619,4.54547,Henegouwen
6250,Presles,50.38391,4.57866,Henegouwen
6250,Roselies,50.42978,4.57179,Henegouwen
6280,Acoz,50.35858,4.53391,Henegouwen
6280,Gerpinnes,50.3373282,4.5277925,Henegouwen
6280,Gougnies,50.3552,4.57528,Henegouwen
6280,Joncret,50.35344,4.51333,Henegouwen
6280,Loverval,50.3747,4.4737,Henegouwen
6280,Villers-Poterie,50.35363,4.54905,Henegouwen
6440,Boussu-Lez-Walcourt,50.2278614,4.3780579,Henegouwen
6440,Fourbechies,50.1636881,4.3107812,Henegouwen
6440,Froidchapelle,50.1500253,4.3282168,Henegouwen
6440,Vergnies,50.1988476,4.3047818,Henegouwen
6441,Erpion,50.2115372,4.3555674,Henegouwen
6460,Bailièvre,50.06919,4.23844,Henegouwen
6460,Chimay,50.0844529,4.2660214,Henegouwen
6460,Robechies,50.07275,4.27725,Henegouwen
6460,Saint-Remy,50.04538,4.29193,Henegouwen
6460,Salles,50.05544,4.24463,Henegouwen
6460,Villers-La-Tour,50.03601,4.26131,Henegouwen
6461,Virelles,50.06582,4.33526,Henegouwen
6462,Vaulx-Lez-Chimay,50.06118,4.36487,Henegouwen
6463,Lompret,50.06409,4.37839,Henegouwen
6464,Baileux,50.02871,4.37605,Henegouwen
6464,Bourlers,50.02716,4.341,Henegouwen
6464,Forges,50.02576,4.32792,Henegouwen
6464,L'escaillère,49.9453667,4.4309752,Henegouwen
6464,Rièzes,49.95914,4.36891,Henegouwen
6470,Grandrieu,50.2007845,4.1720392,Henegouwen
6470,Montbliart,50.1344705,4.2240647,Henegouwen
6470,Rance,50.14337,4.26913,Henegouwen
6470,Sautin,50.1636283,4.2257553,Henegouwen
6470,Sivry,50.1660176,4.182086,Henegouwen
6470,Sivry-Rance,50.1699509,4.1813855,Henegouwen
6500,Barbençon,50.2216018,4.2843778,Henegouwen
6500,Beaumont,50.2190423,4.2497858,Henegouwen
6500,Leugnies,50.2230128,4.1975122,Henegouwen
6500,Leval-Chaudeville,50.23554,4.20949,Henegouwen
6500,Renlies,50.1914031,4.2664251,Henegouwen
6500,Solre-Saint-Géry,50.2151129,4.2439166,Henegouwen
6500,Thirimont,50.2611798,4.2357279,Henegouwen
6511,Strée,50.2750402,4.288815,Henegouwen
6530,Leers-Et-Fosteau,50.3044451,4.2457958,Henegouwen
6530,Thuin,50.3414098,4.2928918,Henegouwen
6531,Biesme-Sous-Thuin,50.3220429,4.3087831,Henegouwen
6532,Ragnies,50.3085551,4.2841508,Henegouwen
6533,Biercée,50.3245498,4.2594865,Henegouwen
6534,Gozée,50.3334575,4.351614,Henegouwen
6536,Donstiennes,50.2864402,4.3121002,Henegouwen
6536,Thuillies,50.3003425,4.3309528,Henegouwen
6540,Lobbes,50.3682434,4.2662585,Henegouwen
6540,Mont-Sainte-Geneviève,50.3722603,4.2365499,Henegouwen
6542,Sars-La-Buissière,50.3397381,4.2098006,Henegouwen
6543,Bienne-Lez-Happart,50.3521841,4.216185,Henegouwen
6560,Bersillies-L'abbaye,50.2630353,4.1490501,Henegouwen
6560,Erquelinnes,50.3073558,4.1113839,Henegouwen
6560,Grand-Reng,50.3306631,4.0747949,Henegouwen
6560,Hantes-Wihéries,50.3053426,4.1778621,Henegouwen
6560,Montignies-Saint-Christophe,50.282205,4.1914995,Henegouwen
6560,Solre-Sur-Sambre,50.3071512,4.1578836,Henegouwen
6567,Fontaine-Valmont,50.3180022,4.2155052,Henegouwen
6567,Labuissière,50.315854,4.1854165,Henegouwen
6567,Merbes-Le-ChÂteau,50.3244185,4.1645212,Henegouwen
6567,Merbes-Sainte-Marie,50.3557862,4.1708963,Henegouwen
6590,Momignies,50.031015,4.1789941,Henegouwen
6591,Macon,50.05062,4.20912,Henegouwen
6592,Monceau-Imbrechies,50.03796,4.22773,Henegouwen
6593,Macquenoise,49.97559,4.17862,Henegouwen
6594,Beauwelz,50.01401,4.15651,Henegouwen
6596,Forge-Philippe,49.96687,4.25299,Henegouwen
6596,Seloignes,50.01525,4.25613,Henegouwen
6600,Bastogne,50.0005973,5.7152666,Luxemburg
6600,Longvilly,50.0248837,5.8364836,Luxemburg
6600,Noville,50.0637281,5.7607706,Luxemburg
6600,Villers-La-Bonne-Eau,49.9340321,5.7481956,Luxemburg
6600,Wardin,49.9911002,5.7882474,Luxemburg
6630,Martelange,49.8324009,5.7402041,Luxemburg
6637,Fauvillers,49.851562,5.6627735,Luxemburg
6637,Hollange,49.9064911,5.6888102,Luxemburg
6637,Tintange,49.878755,5.7515418,Luxemburg
6640,Hompré,49.9443952,5.6869659,Luxemburg
6640,Morhet,49.9633899,5.5841583,Luxemburg
6640,Nives,49.9091097,5.6069934,Luxemburg
6640,Sibret,49.9706602,5.6341847,Luxemburg
6640,Vaux-Lez-Rosières,49.9125,5.5677,Luxemburg
6640,Vaux-Sur-SÛre,49.9444556,5.6202645,Luxemburg
6642,Juseret,49.8797422,5.5492587,Luxemburg
6660,Houffalize,50.1419014,5.6912202,Luxemburg
6660,Nadrin,50.159002,5.6827858,Luxemburg
6661,Mont,50.1532229,5.7695926,Luxemburg
6661,Tailles,50.2265221,5.7466501,Luxemburg
6662,Tavigny,50.1088963,5.8393883,Luxemburg
6663,Mabompré,50.0989674,5.7403204,Luxemburg
6666,Wibrin,50.1661241,5.7175372,Luxemburg
6670,Gouvy,50.1457074,5.9245645,Luxemburg
6670,Limerlé,50.1572636,5.9243825,Luxemburg
6671,Bovigny,50.2250817,5.919055,Luxemburg
6672,Beho,50.2196586,5.9980109,Luxemburg
6673,Cherain,50.1805372,5.8653043,Luxemburg
6674,Montleban,50.2120826,5.8376462,Luxemburg
6680,Amberloup,50.0317221,5.5296068,Luxemburg
6680,Sainte-Ode,50.0199719,5.5480905,Luxemburg
6680,Tillet,50.0104453,5.5296828,Luxemburg
6681,Lavacherie,50.0528654,5.5100095,Luxemburg
6686,Flamierge,50.0335764,5.6043762,Luxemburg
6687,Bertogne,50.0908293,5.6808856,Luxemburg
6688,Longchamps,50.0535609,5.6908206,Luxemburg
6690,Bihain,50.2380618,5.808717,Luxemburg
6690,Vielsalm,50.2517425,5.8711513,Luxemburg
6692,Petit-Thier,50.3077974,5.9676006,Luxemburg
6698,Grand-Halleux,50.3260048,5.9066265,Luxemburg
6700,Arlon,49.6851364,5.8104804,Luxemburg
6700,Bonnert,49.7108981,5.8187693,Luxemburg
6700,Heinsch,49.6995172,5.7464653,Luxemburg
6700,Toernich,49.652491,5.7791223,Luxemburg
6704,Guirsch,49.7098711,5.8286286,Luxemburg
6706,Autelbas,49.6480677,5.8624158,Luxemburg
6717,Attert,49.7506889,5.7865368,Luxemburg
6717,Nobressart,49.7399967,5.7178818,Luxemburg
6717,Nothomb,49.7723268,5.7885145,Luxemburg
6717,Thiaumont,49.7153956,5.7307767,Luxemburg
6717,Tontelange,49.7259512,5.8098272,Luxemburg
6720,Habay,49.7267434,5.6634857,Luxemburg
6720,Habay-La-Neuve,49.7280718,5.6460452,Luxemburg
6720,Hachy,49.7018218,5.680422,Luxemburg
6721,Anlier,49.7718846,5.6208137,Luxemburg
6723,Habay-La-Vieille,49.7234933,5.6192831,Luxemburg
6724,Houdemont,49.7188508,5.5840477,Luxemburg
6724,Rulles,49.7184613,5.5596208,Luxemburg
6730,Bellefontaine,49.6639401,5.4964735,Luxemburg
6730,Rossignol,49.7175007,5.4856597,Luxemburg
6730,Saint-Vincent,49.6772976,5.4757436,Luxemburg
6730,Tintigny,49.6833444,5.5131279,Luxemburg
6740,Etalle,49.6694372,5.57796,Luxemburg
6740,Sainte-Marie-Sur-Semois,49.67117,5.56358,Luxemburg
6740,Villers-Sur-Semois,49.6984089,5.5598847,Luxemburg
6741,Vance,49.6713167,5.6658379,Luxemburg
6742,Chantemelle,49.6529102,5.6526951,Luxemburg
6743,Buzenol,49.6456653,5.5953405,Luxemburg
6747,Châtillon,49.6248,5.69657,Luxemburg
6747,Meix-Le-Tige,49.61709,5.72069,Luxemburg
6747,Saint-LÉger,49.6119564,5.6566551,Luxemburg
6750,Musson,49.5581782,5.7056943,Luxemburg
6750,Mussy-La-Ville,49.570673,5.6620086,Luxemburg
6750,Signeulx,49.55223,5.63805,Luxemburg
6760,Bleid,49.5693096,5.6280964,Luxemburg
6760,Ethe,49.5796692,5.5819087,Luxemburg
6760,Ruette,49.5365538,5.5949257,Luxemburg
6760,Virton,49.5871911,5.5862953,Luxemburg
6761,Latour,49.5575295,5.5705855,Luxemburg
6762,Saint-Mard,49.5542548,5.5346766,Luxemburg
6767,Dampicourt,49.5566955,5.4759516,Luxemburg
6767,Harnoncourt,49.5355121,5.4996269,Luxemburg
6767,Lamorteau,49.5259975,5.4807287,Luxemburg
6767,Rouvroy,49.53812,5.49189,Luxemburg
6767,Torgny,49.5080762,5.4740405,Luxemburg
6769,Gérouville,49.6204111,5.426936,Luxemburg
6769,Meix-Devant-Virton,49.6056457,5.4780041,Luxemburg
6769,Robelmont,49.5944837,5.5078905,Luxemburg
6769,Sommethonne,49.5785062,5.4478548,Luxemburg
6769,Villers-La-Loue,49.5745676,5.4821567,Luxemburg
6780,Hondelange,49.6334358,5.8362868,Luxemburg
6780,Messancy,49.6216258,5.8214036,Luxemburg
6780,Wolkrange,49.6337423,5.7994452,Luxemburg
6781,Sélange,49.6093822,5.8466761,Luxemburg
6782,Habergy,49.6142745,5.7596109,Luxemburg
6790,Aubange,49.5608954,5.808873,Luxemburg
6791,Athus,49.5628647,5.8347138,Luxemburg
6792,Halanzy,49.5565078,5.7432347,Luxemburg
6792,Rachecourt,49.5911813,5.7267117,Luxemburg
6800,Bras,49.9750202,5.3892229,Luxemburg
6800,Freux,49.9699861,5.4504457,Luxemburg
6800,Libramont-Chevigny,49.91842,5.37458,Luxemburg
6800,Moircy,49.9895785,5.4695106,Luxemburg
6800,Recogne,49.9110798,5.360253,Luxemburg
6800,Remagne,49.9766169,5.4943517,Luxemburg
6800,Saint-Pierre,49.9036915,5.3880072,Luxemburg
6800,Sainte-Marie-Chevigny,49.9234787,5.4582979,Luxemburg
6810,Chiny,49.6989693,5.386743,Luxemburg
6810,Izel,49.6937299,5.3722119,Luxemburg
6810,Jamoigne,49.694871,5.4146049,Luxemburg
6811,Les Bulles,49.7042122,5.4239144,Luxemburg
6812,Suxy,49.7639751,5.3993485,Luxemburg
6813,Termes,49.7078398,5.4578124,Luxemburg
6820,Florenville,49.7270823,5.220133,Luxemburg
6820,Fontenoille,49.7150554,5.2343041,Luxemburg
6820,Muno,49.7163845,5.1751412,Luxemburg
6820,Sainte-Cécile,49.7296613,5.2428643,Luxemburg
6821,Lacuisine,49.7163512,5.3173471,Luxemburg
6823,Villers-Devant-Orval,49.6196324,5.3314402,Luxemburg
6824,Chassepierre,49.7076672,5.2603388,Luxemburg
6830,Bouillon,49.7892158,5.0905007,Luxemburg
6830,Les Hayons,49.8129802,5.1453939,Luxemburg
6830,Poupehan,49.8115256,5.002763,Luxemburg
6830,Rochehaut,49.8411879,5.0076505,Luxemburg
6831,Noirfontaine,49.8202036,5.0942677,Luxemburg
6832,Sensenruth,49.8244628,5.0762113,Luxemburg
6833,Ucimont,49.8317003,5.058436,Luxemburg
6833,Vivy,49.866876,5.0384163,Luxemburg
6834,Bellevaux,49.8405538,5.1101023,Luxemburg
6836,Dohan,49.7960885,5.1428394,Luxemburg
6838,Corbion,49.7971683,5.0076838,Luxemburg
6840,Grandvoir,49.85835,5.37272,Luxemburg
6840,Grapfontaine,49.8221,5.4062,Luxemburg
6840,Hamipré,49.83749,5.45735,Luxemburg
6840,Longlier,49.85544,5.45288,Luxemburg
6840,NeufchÂteau,49.8417539,5.434177,Luxemburg
6840,Tournay,49.85469,5.39765,Luxemburg
6850,Carlsbourg,49.8947012,5.0822437,Luxemburg
6850,Offagne,49.8861615,5.1749738,Luxemburg
6850,Paliseul,49.9037127,5.1345943,Luxemburg
6851,Nollevaux,49.8712705,5.1210695,Luxemburg
6852,Maissin,49.9646508,5.1791072,Luxemburg
6852,Opont,49.9355975,5.1195934,Luxemburg
6853,Framont,49.9192841,5.1605186,Luxemburg
6856,Fays-Les-Veneurs,49.8665022,5.1613778,Luxemburg
6860,Assenois,49.8015106,5.4651471,Luxemburg
6860,Ebly,49.8531341,5.5404417,Luxemburg
6860,LÉglise,49.800018,5.537628,Luxemburg
6860,Mellier,49.7685936,5.5221492,Luxemburg
6860,Witry,49.8596108,5.6131081,Luxemburg
6870,Arville,50.0323784,5.3193343,Luxemburg
6870,Awenne,50.0742236,5.3066608,Luxemburg
6870,Hatrival,50.0050863,5.3451907,Luxemburg
6870,Mirwart,50.0564514,5.2638388,Luxemburg
6870,Saint-Hubert,50.0260067,5.3727272,Luxemburg
6870,Vesqueville,50.0059895,5.394529,Luxemburg
6880,Auby-Sur-Semois,49.8158343,5.1831373,Luxemburg
6880,Bertrix,49.854235,5.2535561,Luxemburg
6880,Cugnon,49.8023095,5.202591,Luxemburg
6880,Jehonville,49.9068245,5.2003751,Luxemburg
6880,Orgeo,49.8364639,5.2995526,Luxemburg
6887,Herbeumont,49.78095,5.2376,Luxemburg
6887,Saint-Médard,49.81182,5.32805,Luxemburg
6887,Straimont,49.79551,5.3815,Luxemburg
6890,Anloy,49.9494863,5.221726,Luxemburg
6890,Libin,49.9815451,5.2572,Luxemburg
6890,Ochamps,49.9249054,5.2775069,Luxemburg
6890,Redu,50.0075195,5.1597629,Luxemburg
6890,Smuid,50.018765,5.2667659,Luxemburg
6890,Transinne,50.000543,5.2035647,Luxemburg
6890,Villance,49.9710047,5.2204298,Luxemburg
6900,Aye,50.22493,5.29695,Luxemburg
6900,Hargimont,50.18624,5.30625,Luxemburg
6900,Humain,50.20501,5.25661,Luxemburg
6900,Marche-En-Famenne,50.2282896,5.3441606,Luxemburg
6900,On,50.17382,5.28783,Luxemburg
6900,Roy,50.18586,5.40707,Luxemburg
6900,Waha,50.21191,5.34296,Luxemburg
6920,Sohier,50.068318,5.0678053,Luxemburg
6920,Wellin,50.0575065,5.0650474,Luxemburg
6921,Chanly,50.0796147,5.1540758,Luxemburg
6922,Halma,50.0757255,5.1363449,Luxemburg
6924,Lomprez,50.0762069,5.092396,Luxemburg
6927,Bure,50.0883647,5.2594882,Luxemburg
6927,Grupont,50.0917339,5.2801805,Luxemburg
6927,Resteigne,50.0836994,5.1761749,Luxemburg
6927,Tellin,50.0833973,5.2208099,Luxemburg
6929,Daverdisse,50.020301,5.1182335,Luxemburg
6929,Gembes,49.9948698,5.0656928,Luxemburg
6929,Haut-Fays,50.0011935,5.0175845,Luxemburg
6929,Porcheresse,49.9782394,5.0870126,Luxemburg
6940,Barvaux-Sur-Ourthe,50.35064,5.49306,Luxemburg
6940,Durbuy,50.3350543,5.4345624,Luxemburg
6940,Grandhan,50.32946,5.41132,Luxemburg
6940,Septon,50.35506,5.42168,Luxemburg
6940,Wéris,50.32612,5.53048,Luxemburg
6941,Bende,50.41954,5.41544,Luxemburg
6941,Bomal-Sur-Ourthe,50.37901,5.52348,Luxemburg
6941,Borlon,50.379,5.40511,Luxemburg
6941,Heyd,50.34725,5.56188,Luxemburg
6941,Izier,50.383803,5.5795356,Luxemburg
6941,Tohogne,50.37975,5.48013,Luxemburg
6941,Villers-Sainte-Gertrude,50.3616152,5.5800674,Luxemburg
6950,Harsin,50.1735662,5.3479488,Luxemburg
6950,Nassogne,50.1109477,5.3664669,Luxemburg
6951,Bande,50.1670102,5.41552,Luxemburg
6952,Grune,50.1547678,5.3812924,Luxemburg
6953,Ambly,50.1443527,5.3117953,Luxemburg
6953,Forrières,50.1338181,5.2807925,Luxemburg
6953,Lesterny,50.1116414,5.2801707,Luxemburg
6953,Masbourg,50.11341,5.31374,Luxemburg
6960,Dochamps,50.23277,5.62343,Luxemburg
6960,Grandmenil,50.29051,5.65989,Luxemburg
6960,Harre,50.35055,5.65617,Luxemburg
6960,Malempré,50.28173,5.71243,Luxemburg
6960,Manhay,50.2908885,5.6614499,Luxemburg
6960,Odeigne,50.25693,5.68022,Luxemburg
6960,Vaux-Chavanne,50.30484,5.69123,Luxemburg
6970,Tenneville,50.0859055,5.461307,Luxemburg
6971,Champlon,50.1074532,5.5021264,Luxemburg
6972,Erneuville,50.1128285,5.5493302,Luxemburg
6980,Beausaint,50.1700454,5.5539293,Luxemburg
6980,La Roche-En-Ardenne,50.1845991,5.5556243,Luxemburg
6982,Samrée,50.2112349,5.6342111,Luxemburg
6983,Ortho,50.1250676,5.6139791,Luxemburg
6984,Hives,50.1505142,5.5776532,Luxemburg
6986,Halleux,50.1721642,5.5010126,Luxemburg
6987,Beffe,50.24502,5.52355,Luxemburg
6987,Hodister,50.1999,5.49603,Luxemburg
6987,Marcourt,50.21445,5.53161,Luxemburg
6987,Rendeux,50.2348339,5.5081521,Luxemburg
6990,Fronville,50.29448,5.42208,Luxemburg
6990,Hampteau,50.25867,5.47042,Luxemburg
6990,Hotton,50.26728,5.44568,Luxemburg
6990,Marenne,50.24251,5.41639,Luxemburg
6997,Amonines,50.26474,5.55809,Luxemburg
6997,ErezÉe,50.29172,5.55853,Luxemburg
6997,Mormont,50.3254541,5.5930056,Luxemburg
6997,Soy,50.28564,5.51107,Luxemburg
7000,Mons,50.4542165,3.9566904,Henegouwen
7010,Shape,50.4969668,3.9821153,Henegouwen
7011,Ghlin,50.4642964,3.8877424,Henegouwen
7012,Flénu,50.4336915,3.8889901,Henegouwen
7012,Jemappes,50.4479352,3.8990501,Henegouwen
7020,Maisières,50.4885712,3.965319,Henegouwen
7020,Nimy,50.4765848,3.9552523,Henegouwen
7021,Havre,50.4639119,4.0453246,Henegouwen
7022,Harmignies,50.4060459,4.0174614,Henegouwen
7022,Harveng,50.3946189,3.987102,Henegouwen
7022,Hyon,50.4395855,3.9607279,Henegouwen
7022,Mesvin,50.4259641,3.9582718,Henegouwen
7022,Nouvelles,50.4104361,3.9671418,Henegouwen
7024,Ciply,50.4219839,3.9462109,Henegouwen
7030,Saint-Symphorien,50.4378687,4.0118304,Henegouwen
7031,Villers-Saint-Ghislain,50.4320932,4.0409306,Henegouwen
7032,Spiennes,50.4251859,3.989321,Henegouwen
7033,Cuesmes,50.4362266,3.9240678,Henegouwen
7034,Obourg,50.4742413,4.0091225,Henegouwen
7034,Saint-Denis,50.4910335,4.0192594,Henegouwen
7040,Asquillies,50.40066,3.95447,Henegouwen
7040,Aulnois,50.34048,3.902,Henegouwen
7040,Blaregnies,50.35715,3.89704,Henegouwen
7040,Bougnies,50.38694,3.93863,Henegouwen
7040,Genly,50.3910334,3.912182,Henegouwen
7040,Goegnies-Chaussée,50.34235,3.94686,Henegouwen
7040,QuÉvy,50.3543123,3.9274387,Henegouwen
7040,Quévy-Le-Grand,50.36065,3.94721,Henegouwen
7040,Quévy-Le-Petit,50.36854,3.93351,Henegouwen
7041,Givry,50.37943,4.03584,Henegouwen
7041,Havay,50.36155,3.98337,Henegouwen
7050,Erbaut,50.5329492,3.8841662,Henegouwen
7050,Erbisoeul,50.5161101,3.8966431,Henegouwen
7050,Herchies,50.5275483,3.8576244,Henegouwen
7050,Jurbise,50.5329145,3.9106591,Henegouwen
7050,Masnuy-Saint-Jean,50.5310497,3.9451238,Henegouwen
7050,Masnuy-Saint-Pierre,50.5364971,3.960863,Henegouwen
7060,Horrues,50.6085349,4.0427256,Henegouwen
7060,Soignies,50.5777389,4.0573135,Henegouwen
7061,Casteau,50.5159354,4.0133385,Henegouwen
7061,Thieusies,50.5151741,4.0482964,Henegouwen
7062,Naast,50.5543555,4.0991332,Henegouwen
7063,Chaussée-Notre-Dame-Louvignies,50.5927405,3.9983062,Henegouwen
7063,Neufvilles,50.5685485,4.0026575,Henegouwen
7070,Gottignies,50.49657,4.06031,Henegouwen
7070,Le Roeulx,50.5029297,4.1087311,Henegouwen
7070,Mignault,50.528,4.15313,Henegouwen
7070,Thieu,50.47363,4.09152,Henegouwen
7070,Ville-Sur-Haine,50.47529,4.06913,Henegouwen
7080,Eugies,50.39021,3.88777,Henegouwen
7080,Frameries,50.41094,3.89551,Henegouwen
7080,La Bouverie,50.41093,3.87192,Henegouwen
7080,Noirchain,50.40176,3.93218,Henegouwen
7080,Sars-La-Bruyère,50.37247,3.87611,Henegouwen
7090,Braine-Le-Comte,50.60936,4.13484,Henegouwen
7090,Hennuyères,50.63843,4.1696,Henegouwen
7090,Henripont,50.59933,4.1854,Henegouwen
7090,Petit-Roeulx-Lez-Braine,50.62539,4.0886,Henegouwen
7090,Ronquières,50.6079,4.22094,Henegouwen
7090,Steenkerque,50.64325,4.06922,Henegouwen
7100,Haine-Saint-Paul,50.45313,4.19126,Henegouwen
7100,Haine-Saint-Pierre,50.45413,4.1996,Henegouwen
7100,La LouviÈre,50.469385,4.1892216,Henegouwen
7100,Saint-Vaast,50.45431,4.16036,Henegouwen
7100,Trivières,50.45041,4.14802,Henegouwen
7110,Boussoit,50.46022,4.07783,Henegouwen
7110,Houdeng-Aimeries,50.48578,4.1446,Henegouwen
7110,Houdeng-Goegnies,50.48815,4.15428,Henegouwen
7110,Maurage,50.4567,4.09927,Henegouwen
7110,Strépy-Bracquegnies,50.48055,4.12,Henegouwen
7120,Croix-Lez-Rouveroy,50.36152,4.07692,Henegouwen
7120,Estinnes,50.4037945,4.1040785,Henegouwen
7120,Estinnes-Au-Mont,50.39652,4.09623,Henegouwen
7120,Estinnes-Au-Val,50.41115,4.10407,Henegouwen
7120,Fauroeulx,50.37022,4.1104,Henegouwen
7120,Haulchin,50.3843,4.08188,Henegouwen
7120,Peissant,50.35106,4.12015,Henegouwen
7120,Rouveroy,50.35544,4.06213,Henegouwen
7120,Vellereille-Le-Sec,50.40195,4.05847,Henegouwen
7120,Vellereille-Les-Brayeux,50.3793,4.15195,Henegouwen
7130,Battignies,50.41691,4.16889,Henegouwen
7130,Binche,50.4278907,4.1185307,Henegouwen
7130,Bray,50.43164,4.10543,Henegouwen
7131,Waudrez,50.41332,4.14948,Henegouwen
7133,Buvrinnes,50.38873,4.20524,Henegouwen
7134,Epinois,50.40558,4.20728,Henegouwen
7134,Leval-Trahegnies,50.41653,4.21766,Henegouwen
7134,Péronnes-Lez-Binche,50.43722,4.14874,Henegouwen
7134,Ressaix,50.42188,4.19475,Henegouwen
7140,Morlanwelz,50.4523812,4.2297719,Henegouwen
7140,Morlanwelz-Mariemont,50.45808,4.24739,Henegouwen
7141,Carnières,50.44139,4.2549,Henegouwen
7141,Mont-Sainte-Aldegonde,50.43056,4.23345,Henegouwen
7160,Chapelle-Lez-Herlaimont,50.47124,4.28082,Henegouwen
7160,Godarville,50.49626,4.28842,Henegouwen
7160,Piéton,50.43749,4.29622,Henegouwen
7170,Bellecourt,50.48307,4.25438,Henegouwen
7170,Bois-D'haine,50.50407,4.22108,Henegouwen
7170,Fayt-Lez-Manage,50.48706,4.22764,Henegouwen
7170,La Hestre,50.475919,4.2299939,Henegouwen
7170,Manage,50.50303,4.23529,Henegouwen
7180,Seneffe,50.5285674,4.2721491,Henegouwen
7181,Arquennes,50.5678375,4.2748602,Henegouwen
7181,Familleureux,50.522862,4.2110894,Henegouwen
7181,Feluy,50.562207,4.250265,Henegouwen
7181,Petit-Roeulx-Lez-Nivelles,50.5548179,4.3107658,Henegouwen
7190,Ecaussinnes,50.5606,4.1724,Henegouwen
7190,Ecaussinnes-D'enghien,50.5608812,4.1538788,Henegouwen
7190,Marche-Lez-Ecaussinnes,50.5469243,4.1819002,Henegouwen
7191,Ecaussinnes-Lalaing,50.5700581,4.1775465,Henegouwen
7300,Boussu,50.425877,3.7969506,Henegouwen
7301,Hornu,50.43634,3.82627,Henegouwen
7320,Bernissart,50.4824696,3.6459245,Henegouwen
7321,Blaton,50.4992803,3.6598433,Henegouwen
7321,Harchies,50.4803048,3.6946534,Henegouwen
7322,Pommeroeul,50.4623107,3.7129612,Henegouwen
7322,Ville-Pommeroeul,50.4708319,3.7293137,Henegouwen
7330,Saint-Ghislain,50.4490864,3.8183635,Henegouwen
7331,Baudour,50.4832756,3.8377399,Henegouwen
7332,Neufmaison,50.5293542,3.7936731,Henegouwen
7332,Sirault,50.5041746,3.7899285,Henegouwen
7333,Tertre,50.4668162,3.8118542,Henegouwen
7334,Hautrage,50.4792056,3.7659709,Henegouwen
7334,Villerot,50.4865886,3.7905933,Henegouwen
7340,Colfontaine,50.41423,3.84598,Henegouwen
7340,Paturages,50.4048263,3.8383261,Henegouwen
7340,Warquignies,50.4010549,3.8216781,Henegouwen
7340,Wasmes,50.4219636,3.8449946,Henegouwen
7350,Hainin,50.4306618,3.7656597,Henegouwen
7350,Hensies,50.432444,3.6844458,Henegouwen
7350,Montroeul-Sur-Haine,50.4355247,3.7039398,Henegouwen
7350,Thulin,50.4290487,3.7391863,Henegouwen
7370,Blaugies,50.372016,3.8058371,Henegouwen
7370,Dour,50.4000125,3.7827922,Henegouwen
7370,Elouges,50.4025947,3.7522644,Henegouwen
7370,Wihéries,50.385473,3.7525313,Henegouwen
7380,Baisieux,50.390588,3.697523,Henegouwen
7380,QuiÉvrain,50.4034322,3.6904002,Henegouwen
7382,Audregnies,50.3830616,3.7175716,Henegouwen
7387,Angre,50.36839,3.69813,Henegouwen
7387,Angreau,50.35064,3.69081,Henegouwen
7387,Athis,50.36563,3.77806,Henegouwen
7387,Autreppe,50.34914,3.73442,Henegouwen
7387,Erquennes,50.35941,3.79349,Henegouwen
7387,Fayt-Le-Franc,50.3581,3.77132,Henegouwen
7387,Honnelles,50.366628,3.6942525,Henegouwen
7387,Marchipont,50.37506,3.67255,Henegouwen
7387,Montignies-Sur-Roc,50.36841,3.73608,Henegouwen
7387,Onnezies,50.36319,3.71647,Henegouwen
7387,Roisin,50.33307,3.69353,Henegouwen
7390,Quaregnon,50.4443909,3.8645777,Henegouwen
7390,Wasmuel,50.4456324,3.8453838,Henegouwen
7500,Ere,50.5809075,3.3683528,Henegouwen
7500,Saint-Maur,50.5727181,3.3945263,Henegouwen
7500,Tournai,50.6056059,3.3880367,Henegouwen
7501,Orcq,50.6049876,3.3492343,Henegouwen
7502,Esplechin,50.5736959,3.3039872,Henegouwen
7503,Froyennes,50.6229047,3.3471214,Henegouwen
7504,Froidmont,50.5784046,3.3280009,Henegouwen
7506,Willemeau,50.573464,3.3491191,Henegouwen
7520,Ramegnies-Chin,50.651422,3.3369103,Henegouwen
7520,Templeuve,50.6448071,3.283159,Henegouwen
7521,Chercq,50.589481,3.4220483,Henegouwen
7522,Blandain,50.6250532,3.3037827,Henegouwen
7522,Hertain,50.6134736,3.289636,Henegouwen
7522,Lamain,50.6007064,3.2922108,Henegouwen
7522,Marquain,50.6042275,3.3226106,Henegouwen
7530,Gaurain-Ramecroix,50.5938686,3.4892888,Henegouwen
7531,Havinnes,50.6157317,3.463517,Henegouwen
7532,Beclers,50.6209471,3.5046928,Henegouwen
7533,Thimougies,50.6345381,3.5096897,Henegouwen
7534,Barry,50.5848568,3.5416068,Henegouwen
7534,Maulde,50.6165291,3.5480139,Henegouwen
7536,Vaulx,50.5903852,3.4334752,Henegouwen
7538,Vezon,50.5719086,3.5002803,Henegouwen
7540,Kain,50.6379973,3.3788194,Henegouwen
7540,Melles,50.6466009,3.4826517,Henegouwen
7540,Quartes,50.6493706,3.513078,Henegouwen
7540,Rumillies,50.6199434,3.4368434,Henegouwen
7542,Mont-Saint-Aubert,50.6548281,3.4040353,Henegouwen
7543,Mourcourt,50.6531232,3.4442619,Henegouwen
7548,Warchin,50.6103448,3.4233289,Henegouwen
7600,PÉruwelz,50.5149368,3.6013594,Henegouwen
7601,Roucourt,50.5291691,3.5871404,Henegouwen
7602,Bury,50.5424563,3.5934527,Henegouwen
7603,Bon-Secours,50.4974738,3.6073123,Henegouwen
7604,Baugnies,50.5615397,3.5517755,Henegouwen
7604,Braffe,50.5522367,3.5820315,Henegouwen
7604,Brasmenil,50.541468,3.5468718,Henegouwen
7604,Callenelle,50.5313231,3.5243768,Henegouwen
7604,Wasmes-Audemez-Briffoeil,50.5512323,3.5359058,Henegouwen
7608,Wiers,50.5083673,3.5327736,Henegouwen
7610,Rumes,50.554887,3.3022239,Henegouwen
7611,La Glanerie,50.532325,3.305943,Henegouwen
7618,Taintignies,50.5467427,3.3403627,Henegouwen
7620,Bléharies,50.513041,3.4148305,Henegouwen
7620,Brunehaut,50.541775,3.3978021,Henegouwen
7620,Guignies,50.5473025,3.3669917,Henegouwen
7620,Hollain,50.5443138,3.4273185,Henegouwen
7620,Jollain-Merlin,50.5391272,3.4039924,Henegouwen
7620,Wez-Velvain,50.5477881,3.389033,Henegouwen
7621,Lesdain,50.5204844,3.3892118,Henegouwen
7622,Laplaigne,50.5207793,3.4469774,Henegouwen
7623,Rongy,50.5084038,3.3911678,Henegouwen
7624,Howardries,50.5060586,3.355899,Henegouwen
7640,Antoing,50.5503239,3.4596501,Henegouwen
7640,Maubray,50.5512055,3.4999451,Henegouwen
7640,Péronnes-Lez-Antoing,50.5503284,3.4541886,Henegouwen
7641,Bruyelle,50.5573826,3.4276343,Henegouwen
7642,Calonne,50.5780363,3.4365062,Henegouwen
7643,Fontenoy,50.567749,3.4736321,Henegouwen
7700,Luingne,50.738441,3.2337149,Henegouwen
7700,Moeskroen,50.7459126,3.219272,Henegouwen
7711,Dottenijs,50.7281602,3.3048918,Henegouwen
7712,Herseaux,50.722568,3.2326156,Henegouwen
7730,Bailleul,50.6697693,3.3186808,Henegouwen
7730,Estaimbourg,50.6803312,3.3098471,Henegouwen
7730,Estaimpuis,50.7061525,3.2649737,Henegouwen
7730,Evregnies,50.7129496,3.2865695,Henegouwen
7730,Leers-Nord,50.6876942,3.2718413,Henegouwen
7730,Néchin,50.6670101,3.2690718,Henegouwen
7730,Saint-Léger,50.7067812,3.3183539,Henegouwen
7740,Pecq,50.699374,3.3314663,Henegouwen
7740,Warcoing,50.7043825,3.3439836,Henegouwen
7742,Hérinnes-Lez-Pecq,50.701341,3.3633472,Henegouwen
7743,Esquelmes,50.6656092,3.3479165,Henegouwen
7743,Obigies,50.6619166,3.3640454,Henegouwen
7750,Amougies,50.74428,3.5068355,Henegouwen
7750,Anseroeul,50.726965,3.5212662,Henegouwen
7750,Mont-De-L'enclus,50.7403202,3.5052669,Henegouwen
7750,Orroir,50.748643,3.4794562,Henegouwen
7750,Russeignies,50.7446224,3.530783,Henegouwen
7760,Celles,50.7121072,3.4574913,Henegouwen
7760,Escanaffles,50.7536795,3.4480032,Henegouwen
7760,Molenbaix,50.6932647,3.4299807,Henegouwen
7760,Popuelles,50.6624916,3.518789,Henegouwen
7760,Pottes,50.7311992,3.4064337,Henegouwen
7760,Velaines,50.6698088,3.4866943,Henegouwen
7780,Komen,50.7687459,2.9997061,Henegouwen
7780,Komen-Waasten,50.7811468,2.9997573,Henegouwen
7781,Houthem,50.7867816,2.9641654,Henegouwen
7782,Ploegsteert,50.7265535,2.8806048,Henegouwen
7783,Bizet,50.7083166,2.8930068,Henegouwen
7784,Neerwaasten,50.7591263,2.9610169,Henegouwen
7784,Waasten,50.7527699,2.9488295,Henegouwen
7800,Ath,50.6335009,3.7882733,Henegouwen
7800,Lanquesaint,50.6532856,3.8065319,Henegouwen
7801,Irchonwelz,50.6179756,3.7590505,Henegouwen
7802,Ormeignies,50.5946299,3.7510985,Henegouwen
7803,Bouvignies,50.6467287,3.7664662,Henegouwen
7804,Ostiches,50.678456,3.7590705,Henegouwen
7804,Rebaix,50.6604453,3.7835209,Henegouwen
7810,Maffle,50.6169973,3.8057979,Henegouwen
7811,Arbre,50.6124045,3.8165211,Henegouwen
7812,Houtaing,50.6405033,3.679122,Henegouwen
7812,Ligne,50.6215858,3.7046301,Henegouwen
7812,Mainvault,50.6490683,3.7168499,Henegouwen
7812,Moulbaix,50.6015858,3.7157035,Henegouwen
7812,Villers-Notre-Dame,50.6168631,3.7361557,Henegouwen
7812,Villers-Saint-Amand,50.6227748,3.7289144,Henegouwen
7822,Ghislenghien,50.6565066,3.8774062,Henegouwen
7822,Isières,50.665394,3.8176928,Henegouwen
7822,Meslin-L'evêque,50.649351,3.8474277,Henegouwen
7823,Gibecq,50.6383168,3.887925,Henegouwen
7830,Bassilly,50.6767826,3.9336848,Henegouwen
7830,Fouleng,50.6182079,3.927783,Henegouwen
7830,Gondregnies,50.6272859,3.911932,Henegouwen
7830,Graty,50.6319712,3.9960425,Henegouwen
7830,Hellebecq,50.6633699,3.8882654,Henegouwen
7830,Hoves,50.6707875,4.0356997,Henegouwen
7830,Silly,50.6488776,3.9235692,Henegouwen
7830,Thoricourt,50.6101066,3.9498259,Henegouwen
7850,Edingen,50.6947421,4.0418582,Henegouwen
7850,Lettelingen,50.6913651,4.0829937,Henegouwen
7850,Mark,50.6914447,4.0154,Henegouwen
7860,Lessines,50.7047124,3.8348594,Henegouwen
7861,Papignies,50.6863766,3.8165855,Henegouwen
7861,Wannebecq,50.6944009,3.7997435,Henegouwen
7862,Ogy,50.7207024,3.7806795,Henegouwen
7863,Ghoy,50.7298753,3.8103491,Henegouwen
7864,Deux-Acren,50.7289132,3.8540312,Henegouwen
7866,Bois-De-Lessines,50.6968993,3.8881698,Henegouwen
7866,Ollignies,50.6846628,3.8591532,Henegouwen
7870,Bauffe,50.56992,3.8531354,Henegouwen
7870,Cambron-Saint-Vincent,50.5819027,3.9170981,Henegouwen
7870,Lens,50.5566281,3.9005909,Henegouwen
7870,Lombise,50.5996813,3.939402,Henegouwen
7870,Montignies-Lez-Lens,50.5642943,3.9441093,Henegouwen
7880,Vloesberg,50.7367,3.73852,Henegouwen
7890,Ellezelles,50.7337608,3.6799142,Henegouwen
7890,Lahamaide,50.6949026,3.724979,Henegouwen
7890,Wodecq,50.7184846,3.7467894,Henegouwen
7900,Grandmetz,50.6230881,3.6310729,Henegouwen
7900,Leuze-En-Hainaut,50.5971918,3.6241539,Henegouwen
7901,Thieulain,50.6179227,3.6051759,Henegouwen
7903,Blicquy,50.5871723,3.6916495,Henegouwen
7903,Chapelle-À-Oie,50.5966376,3.6706651,Henegouwen
7903,Chapelle-À-Wattines,50.6121186,3.6525272,Henegouwen
7904,Pipaix,50.5836922,3.5787649,Henegouwen
7904,Tourpes,50.5710803,3.6548155,Henegouwen
7904,Willaupuis,50.5666962,3.6032726,Henegouwen
7906,Gallaix,50.6053041,3.5739204,Henegouwen
7910,Anvaing,50.6827667,3.5610313,Henegouwen
7910,Arc-Ainières,50.7021983,3.5469602,Henegouwen
7910,Arc-Wattripont,50.728684,3.5480229,Henegouwen
7910,Cordes,50.6884582,3.5329359,Henegouwen
7910,Ellignies-Lez-Frasnes,50.67474,3.59064,Henegouwen
7910,Forest,50.6732879,3.5366398,Henegouwen
7910,Frasnes-Lez-Anvaing,50.6986439,3.5330692,Henegouwen
7910,Wattripont,50.728684,3.5480229,Henegouwen
7911,Buissenal,50.6642045,3.6557135,Henegouwen
7911,Frasnes-Lez-Buissenal,50.6699339,3.6197759,Henegouwen
7911,Hacquegnies,50.6513567,3.5935257,Henegouwen
7911,Herquegies,50.6349791,3.5780843,Henegouwen
7911,Montroeul-Au-Bois,50.6475838,3.5721235,Henegouwen
7911,Moustier,50.6560229,3.6201695,Henegouwen
7911,Oeudeghien,50.6793101,3.7088142,Henegouwen
7912,Dergneau,50.7132742,3.5689855,Henegouwen
7912,Saint-Sauveur,50.7062467,3.5973713,Henegouwen
7940,Brugelette,50.5991751,3.8545291,Henegouwen
7940,Cambron-Casteau,50.5890218,3.8801355,Henegouwen
7941,Attre,50.6067064,3.8384917,Henegouwen
7942,Mévergnies-Lez-Lens,50.60734,3.8525209,Henegouwen
7943,Gages,50.606841,3.8905197,Henegouwen
7950,ChiÈvres,50.58597,3.80609,Henegouwen
7950,Grosage,50.54469,3.75643,Henegouwen
7950,Huissignies,50.56482,3.7541,Henegouwen
7950,Ladeuze,50.56447,3.76861,Henegouwen
7950,Tongre-Saint-Martin,50.58693,3.78884,Henegouwen
7951,Tongre-Notre-Dame,50.5814329,3.7755504,Henegouwen
7970,Beloeil,50.5317621,3.7256357,Henegouwen
7971,Basècles,50.5259119,3.6488934,Henegouwen
7971,Ramegnies,50.544033,3.634732,Henegouwen
7971,Thumaide,50.5403972,3.6304535,Henegouwen
7971,Wadelincourt,50.5376959,3.6533891,Henegouwen
7972,Aubechies,50.5724436,3.6814062,Henegouwen
7972,Ellignies-Saint-Anne,50.5627762,3.67696,Henegouwen
7972,Quevaucamps,50.5186636,3.6801487,Henegouwen
7973,Grandglise,50.505325,3.6942392,Henegouwen
7973,Stambruges,50.5085894,3.7172081,Henegouwen
8000,Brugge,51.2093488,3.2247013,West-Vlaanderen
8000,Koolkerke,51.2403327,3.248109,West-Vlaanderen
8020,Hertsberge,51.1053969,3.2730671,West-Vlaanderen
8020,Oostkamp,51.1545056,3.2334111,West-Vlaanderen
8020,Ruddervoorde,51.095941,3.2065193,West-Vlaanderen
8020,Waardamme,51.1133317,3.2193165,West-Vlaanderen
8200,Sint-Andries,51.1972024,3.1794755,West-Vlaanderen
8200,Sint-Michiels,51.1858939,3.2082098,West-Vlaanderen
8210,Loppem,51.1559088,3.1959225,West-Vlaanderen
8210,Veldegem,51.1045154,3.1595129,West-Vlaanderen
8210,Zedelgem,51.1423355,3.1369128,West-Vlaanderen
8211,Aartrijke,51.1191688,3.0900794,West-Vlaanderen
8300,Knokke,51.3467441,3.2894423,West-Vlaanderen
8300,Knokke-Heist,51.3467441,3.2894423,West-Vlaanderen
8300,Westkapelle,51.3157028,3.3028853,West-Vlaanderen
8301,Heist-Aan-Zee,51.3403638,3.2400417,West-Vlaanderen
8301,Ramskapelle,51.3136364,3.2516251,West-Vlaanderen
8310,Assebroek,51.2020234,3.2550607,West-Vlaanderen
8310,Sint-Kruis,51.214297,3.2512976,West-Vlaanderen
8340,Damme,51.2513634,3.2813763,West-Vlaanderen
8340,Hoeke,51.2916219,3.336729,West-Vlaanderen
8340,Lapscheure,51.2776457,3.3568337,West-Vlaanderen
8340,Moerkerke,51.2430573,3.340071,West-Vlaanderen
8340,Oostkerke,51.2785542,3.2938857,West-Vlaanderen
8340,Sijsele,51.2015613,3.3212461,West-Vlaanderen
8370,Blankenberge,51.3123743,3.1327685,West-Vlaanderen
8370,Uitkerke,51.3033,3.1429,West-Vlaanderen
8377,Houtave,51.2359799,3.1104678,West-Vlaanderen
8377,Meetkerke,51.2350824,3.1514099,West-Vlaanderen
8377,Nieuwmunster,51.273778,3.0986683,West-Vlaanderen
8377,Zuienkerke,51.2649386,3.153933,West-Vlaanderen
8380,Dudzele,51.2736603,3.2247366,West-Vlaanderen
8380,Lissewege,51.2941105,3.1923223,West-Vlaanderen
8380,Zeebrugge,51.3189468,3.2068507,West-Vlaanderen
8400,Oostende,51.21543,2.928656,West-Vlaanderen
8400,Stene,51.2026843,2.914688,West-Vlaanderen
8400,Zandvoorde,51.2012273,2.9750305,West-Vlaanderen
8420,De Haan,51.2500373,3.0380713,West-Vlaanderen
8420,Klemskerke,51.2433832,3.0229766,West-Vlaanderen
8420,Wenduine,51.2976457,3.0830791,West-Vlaanderen
8421,Vlissegem,51.2535272,3.0571336,West-Vlaanderen
8430,Middelkerke,51.1798869,2.8060231,West-Vlaanderen
8431,Wilskerke,51.1796383,2.825943,West-Vlaanderen
8432,Leffinge,51.17567,2.87711,West-Vlaanderen
8433,Mannekensvere,51.1259337,2.8181826,West-Vlaanderen
8433,Schore,51.1117368,2.8392235,West-Vlaanderen
8433,Sint-Pieters-Kapelle,51.1262331,2.8759234,West-Vlaanderen
8433,Slijpe,51.1553124,2.8472073,West-Vlaanderen
8434,Lombardsijde,51.1478198,2.7565537,West-Vlaanderen
8434,Westende,51.1595084,2.7690346,West-Vlaanderen
8450,Bredene,51.2345015,2.9728359,West-Vlaanderen
8460,Ettelgem,51.1795852,3.0302382,West-Vlaanderen
8460,Oudenburg,51.1836837,3.0068564,West-Vlaanderen
8460,Roksem,51.1674713,3.0276368,West-Vlaanderen
8460,Westkerke,51.1644881,3.0154519,West-Vlaanderen
8470,Gistel,51.1562662,2.9676432,West-Vlaanderen
8470,Moere,51.1225897,2.9559016,West-Vlaanderen
8470,Snaaskerke,51.1775854,2.939082,West-Vlaanderen
8470,Zevekote,51.1375112,2.9200416,West-Vlaanderen
8480,Bekegem,51.1597289,3.0453899,West-Vlaanderen
8480,Eernegem,51.1295248,3.0274313,West-Vlaanderen
8480,Ichtegem,51.0928542,3.0106022,West-Vlaanderen
8490,Jabbeke,51.1829867,3.0948244,West-Vlaanderen
8490,Snellegem,51.1690484,3.1230877,West-Vlaanderen
8490,Stalhille,51.2140395,3.0721578,West-Vlaanderen
8490,Varsenare,51.1891579,3.1421014,West-Vlaanderen
8490,Zerkegem,51.1665002,3.0693013,West-Vlaanderen
8500,Kortrijk,50.8194894,3.2577076,West-Vlaanderen
8501,Bissegem,50.8241103,3.2280954,West-Vlaanderen
8501,Heule,50.8431958,3.23472,West-Vlaanderen
8510,Bellegem,50.776603,3.2784441,West-Vlaanderen
8510,Kooigem,50.7396942,3.3313161,West-Vlaanderen
8510,Marke,50.8070105,3.2335928,West-Vlaanderen
8510,Rollegem,50.7659873,3.2634359,West-Vlaanderen
8511,Aalbeke,50.7784023,3.2299377,West-Vlaanderen
8520,Kuurne,50.85397,3.287,West-Vlaanderen
8530,Harelbeke,50.8455798,3.3121073,West-Vlaanderen
8531,Bavikhove,50.8754986,3.3112054,West-Vlaanderen
8531,Hulste,50.8804452,3.2982426,West-Vlaanderen
8540,Deerlijk,50.85374,3.35335,West-Vlaanderen
8550,Zwevegem,50.8080392,3.3505258,West-Vlaanderen
8551,Heestert,50.7826441,3.410366,West-Vlaanderen
8552,Moen,50.7699733,3.3974267,West-Vlaanderen
8553,Otegem,50.8081889,3.4239803,West-Vlaanderen
8554,Sint-Denijs,50.7530651,3.3653137,West-Vlaanderen
8560,Gullegem,50.8447689,3.1989718,West-Vlaanderen
8560,Moorsele,50.8405959,3.1646335,West-Vlaanderen
8560,Wevelgem,50.8089296,3.1836033,West-Vlaanderen
8570,Anzegem,50.8335097,3.4789005,West-Vlaanderen
8570,Gijzelbrechtegem,50.8285391,3.5058127,West-Vlaanderen
8570,Ingooigem,50.8173718,3.4342331,West-Vlaanderen
8570,Vichte,50.8378727,3.4030323,West-Vlaanderen
8572,Kaster,50.8131679,3.4938322,West-Vlaanderen
8573,Tiegem,50.8086089,3.4752664,West-Vlaanderen
8580,Avelgem,50.7790895,3.4511795,West-Vlaanderen
8581,Kerkhove,50.7983592,3.5006455,West-Vlaanderen
8581,Waarmaarde,50.7908774,3.4854501,West-Vlaanderen
8582,Outrijve,50.7560066,3.4292885,West-Vlaanderen
8583,Bossuit,50.7481174,3.4072881,West-Vlaanderen
8587,Helkijn,50.7321848,3.3811463,West-Vlaanderen
8587,Spiere,50.7184934,3.35537,West-Vlaanderen
8587,Spiere-Helkijn,50.7297543,3.3595085,West-Vlaanderen
8600,Beerst,51.0589145,2.8868758,West-Vlaanderen
8600,Diksmuide,51.033331,2.8658393,West-Vlaanderen
8600,Driekapellen,50.7063183,3.9862194,West-Vlaanderen
8600,Esen,51.0294434,2.9021449,West-Vlaanderen
8600,Kaaskerke,51.0357927,2.8364554,West-Vlaanderen
8600,Keiem,51.0807421,2.8821755,West-Vlaanderen
8600,Lampernisse,51.0325467,2.7685298,West-Vlaanderen
8600,Leke,51.1004367,2.8904342,West-Vlaanderen
8600,Nieuwkapelle,50.999433,2.7999063,West-Vlaanderen
8600,Oostkerke,51.0464297,2.7972622,West-Vlaanderen
8600,Oudekapelle,51.0135407,2.8080138,West-Vlaanderen
8600,Pervijze,51.0733467,2.7941219,West-Vlaanderen
8600,Sint-Jacobs-Kapelle,51.0164049,2.8338522,West-Vlaanderen
8600,Stuivekenskerke,51.0767668,2.825052,West-Vlaanderen
8600,Vladslo,51.0464012,2.916271,West-Vlaanderen
8600,Woumen,50.9983803,2.8697759,West-Vlaanderen
8610,Handzame,51.025671,3.0031283,West-Vlaanderen
8610,Kortemark,51.0284499,3.0441091,West-Vlaanderen
8610,Werken,51.0291439,2.9646703,West-Vlaanderen
8610,Zarren,51.0184331,2.9589059,West-Vlaanderen
8620,Nieuwpoort,51.1285059,2.7480064,West-Vlaanderen
8620,Ramskapelle,51.1095483,2.7620106,West-Vlaanderen
8620,Sint-Joris,51.1291298,2.7723581,West-Vlaanderen
8630,Avekapelle,51.0663475,2.7329511,West-Vlaanderen
8630,Booitshoeke,51.0869455,2.7332623,West-Vlaanderen
8630,Bulskamp,51.0413505,2.6500228,West-Vlaanderen
8630,De Moeren,51.041709,2.600584,West-Vlaanderen
8630,Eggewaartskapelle,51.0496759,2.7218286,West-Vlaanderen
8630,Houtem,51.0104746,2.6096642,West-Vlaanderen
8630,Steenkerke,51.0574271,2.6892647,West-Vlaanderen
8630,Veurne,51.0731945,2.6680059,West-Vlaanderen
8630,Vinkem,51.0161527,2.6628519,West-Vlaanderen
8630,Wulveringem,51.014517,2.6544608,West-Vlaanderen
8630,Zoutenaaie,51.0485937,2.75075,West-Vlaanderen
8640,Oostvleteren,50.9318028,2.7367963,West-Vlaanderen
8640,Vleteren,50.9296908,2.7327547,West-Vlaanderen
8640,Westvleteren,50.9276053,2.716907,West-Vlaanderen
8640,Woesten,50.9006632,2.7891271,West-Vlaanderen
8647,Lo,50.9806703,2.7489727,West-Vlaanderen
8647,Lo-Reninge,50.9688486,2.7818969,West-Vlaanderen
8647,Noordschote,50.9546429,2.810466,West-Vlaanderen
8647,Pollinkhove,50.9710805,2.7322734,West-Vlaanderen
8647,Reninge,50.97334,2.77157,West-Vlaanderen
8650,Houthulst,50.9773885,2.9457764,West-Vlaanderen
8650,Klerken,50.9980304,2.9041727,West-Vlaanderen
8650,Merkem,50.9528136,2.8523982,West-Vlaanderen
8660,Adinkerke,51.0751267,2.6034114,West-Vlaanderen
8660,De Panne,51.0962794,2.5905629,West-Vlaanderen
8670,Koksijde,51.1053908,2.6500795,West-Vlaanderen
8670,Oostduinkerke,51.1158173,2.6824907,West-Vlaanderen
8670,Wulpen,51.1007563,2.6991737,West-Vlaanderen
8680,Bovekerke,51.0544659,2.9627034,West-Vlaanderen
8680,Koekelare,51.0929033,2.9795835,West-Vlaanderen
8680,Zande,51.1200517,2.9222322,West-Vlaanderen
8690,Alveringem,51.0122085,2.7130822,West-Vlaanderen
8690,Hoogstade,50.9795594,2.6916569,West-Vlaanderen
8690,Oeren,51.0230442,2.7052385,West-Vlaanderen
8690,Sint-Rijkers,50.9915951,2.687814,West-Vlaanderen
8691,Beveren-Aan-De-Ijzer,50.9392045,2.6397658,West-Vlaanderen
8691,Gijverinkhove,50.9761349,2.6725749,West-Vlaanderen
8691,Izenberge,50.9942337,2.6547262,West-Vlaanderen
8691,Leisele,50.9855486,2.6234329,West-Vlaanderen
8691,Stavele,50.938552,2.6699315,West-Vlaanderen
8700,Aarsele,50.9969343,3.4224989,West-Vlaanderen
8700,Kanegem,51.0134353,3.4033279,West-Vlaanderen
8700,Schuiferskapelle,51.0328997,3.33383,West-Vlaanderen
8700,Tielt,51.0001519,3.3263821,West-Vlaanderen
8710,Ooigem,50.8933706,3.3365046,West-Vlaanderen
8710,Sint-Baafs-Vijve,50.9103986,3.3907682,West-Vlaanderen
8710,Wielsbeke,50.9099543,3.3724687,West-Vlaanderen
8720,Dentergem,50.9636458,3.4186283,West-Vlaanderen
8720,Markegem,50.9458591,3.4026412,West-Vlaanderen
8720,Oeselgem,50.9350995,3.4319099,West-Vlaanderen
8720,Wakken,50.9306218,3.3979722,West-Vlaanderen
8730,Beernem,51.1424812,3.3409529,West-Vlaanderen
8730,Oedelem,51.1685563,3.3397246,West-Vlaanderen
8730,Sint-Joris,51.1275828,3.3683708,West-Vlaanderen
8740,Egem,51.0148444,3.2590301,West-Vlaanderen
8740,Pittem,50.9942681,3.2666639,West-Vlaanderen
8750,Wingene,51.05865,3.2748,West-Vlaanderen
8750,Zwevezele,51.03609,3.21047,West-Vlaanderen
8755,Ruiselede,51.0413098,3.3970513,West-Vlaanderen
8760,Meulebeke,50.9506,3.28637,West-Vlaanderen
8770,Ingelmunster,50.92325,3.26284,West-Vlaanderen
8780,Oostrozebeke,50.9202012,3.3346008,West-Vlaanderen
8790,Waregem,50.8869521,3.4231317,West-Vlaanderen
8791,Beveren,50.873981,3.3465118,West-Vlaanderen
8792,Desselgem,50.8868997,3.3494059,West-Vlaanderen
8793,Sint-Eloois-Vijve,50.9034885,3.4098713,West-Vlaanderen
8800,Beveren,50.9685498,3.1443098,West-Vlaanderen
8800,Oekene,50.9202542,3.1609844,West-Vlaanderen
8800,Roeselare,50.949931,3.129445,West-Vlaanderen
8800,Rumbeke,50.9332448,3.1560374,West-Vlaanderen
8810,Lichtervelde,51.0277074,3.1439095,West-Vlaanderen
8820,Torhout,51.06498,3.10157,West-Vlaanderen
8830,Gits,50.9970116,3.0999918,West-Vlaanderen
8830,Hooglede,50.9785141,3.0814646,West-Vlaanderen
8840,Oostnieuwkerke,50.9423778,3.0642828,West-Vlaanderen
8840,Staden,50.9745786,3.014488,West-Vlaanderen
8840,Westrozebeke,50.931897,3.012283,West-Vlaanderen
8850,Ardooie,50.979065,3.1988027,West-Vlaanderen
8851,Koolskamp,51.0019392,3.2117867,West-Vlaanderen
8860,Lendelede,50.8862994,3.2381931,West-Vlaanderen
8870,Emelgem,50.9271506,3.2178679,West-Vlaanderen
8870,Izegem,50.9180785,3.2132192,West-Vlaanderen
8870,Kachtem,50.9318824,3.1924033,West-Vlaanderen
8880,Ledegem,50.8549568,3.1274573,West-Vlaanderen
8880,Rollegem-Kapelle,50.8682853,3.1449509,West-Vlaanderen
8880,Sint-Eloois-Winkel,50.8762769,3.1823566,West-Vlaanderen
8890,Dadizele,50.8516407,3.0944555,West-Vlaanderen
8890,Moorslede,50.891147,3.0632369,West-Vlaanderen
8900,Brielen,50.867386,2.8501053,West-Vlaanderen
8900,Dikkebus,50.8205936,2.8318862,West-Vlaanderen
8900,Ieper,50.8492265,2.8779465,West-Vlaanderen
8900,Sint-Jan,50.866914,2.9021437,West-Vlaanderen
8902,Hollebeke,50.8053761,2.9371958,West-Vlaanderen
8902,Voormezele,50.8165607,2.875805,West-Vlaanderen
8902,Zillebeke,50.8345035,2.9225399,West-Vlaanderen
8904,Boezinge,50.8967457,2.8547932,West-Vlaanderen
8904,Zuidschote,50.9130344,2.8295441,West-Vlaanderen
8906,Elverdinge,50.8858801,2.817508,West-Vlaanderen
3220,Holsbeek,50.9248584,4.7861502,West-Vlaanderen
3220,Kortrijk-Dutsel,50.9266825,4.8055097,West-Vlaanderen
3220,Sint-Pieters-Rode,50.93239,4.82057,West-Vlaanderen
3221,Nieuwrode,50.94955,4.83339,West-Vlaanderen
8906,Elverdinge,50.8858801,2.817508,West-Vlaanderen
8908,Vlamertinge,50.8536639,2.8243473,West-Vlaanderen
8920,Bikschote,50.9258047,2.8646858,West-Vlaanderen
8920,Langemark,50.9135965,2.920005,West-Vlaanderen
8920,Langemark-Poelkapelle,50.9135674,2.9200127,West-Vlaanderen
8920,Poelkapelle,50.9176532,2.9565978,West-Vlaanderen
8930,Lauwe,50.7946478,3.1849946,West-Vlaanderen
8930,Menen,50.7961693,3.1214422,West-Vlaanderen
8930,Rekkem,50.782807,3.1641132,West-Vlaanderen
8940,Geluwe,50.8099859,3.0767048,West-Vlaanderen
8940,Wervik,50.7841386,3.0448969,West-Vlaanderen
8950,Heuvelland,50.733506,2.8250977,West-Vlaanderen
8950,Nieuwkerke,50.7460655,2.8252871,West-Vlaanderen
8951,Dranouter,50.7659194,2.7829724,West-Vlaanderen
8952,Wulvergem,50.7601685,2.8524263,West-Vlaanderen
8953,Wijtschate,50.7858578,2.8831131,West-Vlaanderen
8954,Westouter,50.7971484,2.7464372,West-Vlaanderen
8956,Kemmel,50.7832795,2.8286179,West-Vlaanderen
8957,Mesen,50.7638555,2.8976699,West-Vlaanderen
8958,Loker,50.7817391,2.7721461,West-Vlaanderen
8970,Poperinge,50.8452065,2.7211761,West-Vlaanderen
8970,Reningelst,50.8170545,2.7634047,West-Vlaanderen
8972,Krombeke,50.9148551,2.6885943,West-Vlaanderen
8972,Proven,50.8904872,2.6560368,West-Vlaanderen
8972,Roesbrugge-Haringe,50.918879,2.6247955,West-Vlaanderen
8978,Watou,50.8588172,2.6206457,West-Vlaanderen
8980,Beselare,50.84788,3.024675,West-Vlaanderen
8980,Geluveld,50.8338478,2.9939124,West-Vlaanderen
8980,Passendale,50.9002575,3.0207328,West-Vlaanderen
8980,Zandvoorde,50.8123365,2.9816989,West-Vlaanderen
8980,Zonnebeke,50.8727334,2.9874714,West-Vlaanderen
9000,Gent,51.0678307,3.7290914,Oost-Vlaanderen
9030,Mariakerke,51.0736204,3.680642,Oost-Vlaanderen
9031,Drongen,51.05048,3.6633,Oost-Vlaanderen
9032,Wondelgem,51.0905009,3.7160657,Oost-Vlaanderen
9040,Sint-Amandsberg,51.0593304,3.7509905,Oost-Vlaanderen
9041,Oostakker,51.099713,3.7642304,Oost-Vlaanderen
9042,Desteldonk,51.1220868,3.7825691,Oost-Vlaanderen
9042,Mendonk,51.1447934,3.8193015,Oost-Vlaanderen
9042,Sint-Kruis-Winkel,51.1558401,3.8158001,Oost-Vlaanderen
9050,Gentbrugge,51.0342951,3.7640148,Oost-Vlaanderen
9050,Ledeberg,51.0371743,3.7412237,Oost-Vlaanderen
9051,Afsnee,51.0305603,3.6661568,Oost-Vlaanderen
9051,Sint-Denijs-Westrem,51.0200854,3.6695793,Oost-Vlaanderen
9052,Zwijnaarde,50.9998062,3.7106183,Oost-Vlaanderen
9060,Zelzate,51.1987114,3.8119772,Oost-Vlaanderen
9070,Destelbergen,51.0609335,3.7977646,Oost-Vlaanderen
9070,Heusden,51.0327975,3.8036959,Oost-Vlaanderen
9080,Beervelde,51.0800983,3.8805757,Oost-Vlaanderen
9080,Lochristi,51.0974848,3.8378336,Oost-Vlaanderen
9080,Zaffelare,51.1324891,3.8618077,Oost-Vlaanderen
9080,Zeveneken,51.1074665,3.8988663,Oost-Vlaanderen
9090,Gontrode,50.9834948,3.7972911,Oost-Vlaanderen
9090,Melle,51.0036716,3.8003144,Oost-Vlaanderen
9100,Nieuwkerken-Waas,51.1935108,4.1775401,Oost-Vlaanderen
9100,Sint-Niklaas,51.1559033,4.1544255,Oost-Vlaanderen
9111,Belsele,51.1428369,4.0861828,Oost-Vlaanderen
9112,Sinaai-Waas,51.1563307,4.0444238,Oost-Vlaanderen
9120,Beveren-Waas,51.2175194,4.2520903,Oost-Vlaanderen
9120,Haasdonk,51.1810333,4.2378789,Oost-Vlaanderen
9120,Kallo,51.2526476,4.2786812,Oost-Vlaanderen
9120,Melsele,51.2224882,4.2822314,Oost-Vlaanderen
9120,Vrasene,51.2193961,4.1944794,Oost-Vlaanderen
9130,Doel,51.3105976,4.2649749,Oost-Vlaanderen
9130,Kallo,51.2531035,4.2567081,Oost-Vlaanderen
9130,Kieldrecht,51.2894202,4.1755238,Oost-Vlaanderen
9130,Verrebroek,51.2555891,4.1888455,Oost-Vlaanderen
9140,Elversele,51.1145439,4.1433446,Oost-Vlaanderen
9140,Steendorp,51.1258102,4.2706342,Oost-Vlaanderen
9140,Temse,51.12955,4.21275,Oost-Vlaanderen
9140,Tielrode,51.114781,4.1639796,Oost-Vlaanderen
9150,Bazel,51.147512,4.2983585,Oost-Vlaanderen
9150,Kruibeke,51.1706378,4.3123069,Oost-Vlaanderen
9150,Rupelmonde,51.1274074,4.2903448,Oost-Vlaanderen
9160,Daknam,51.1278368,3.987354,Oost-Vlaanderen
9160,Eksaarde,51.1471563,3.9586263,Oost-Vlaanderen
9160,Lokeren,51.1024238,3.9940517,Oost-Vlaanderen
9170,De Klinge,51.256206,4.0900407,Oost-Vlaanderen
9170,Meerdonk,51.2607213,4.145993,Oost-Vlaanderen
9170,Sint-Gillis-Waas,51.2199257,4.1242507,Oost-Vlaanderen
9170,Sint-Pauwels,51.193303,4.0977458,Oost-Vlaanderen
9180,Moerbeke-Waas,51.1734692,3.9342837,Oost-Vlaanderen
9185,Wachtebeke,51.17095,3.86055,Oost-Vlaanderen
9190,Kemzeke,51.2062441,4.0756996,Oost-Vlaanderen
9190,Stekene,51.2063826,4.040883,Oost-Vlaanderen
9200,Appels,51.0293011,4.0541409,Oost-Vlaanderen
9200,Baasrode,51.0378102,4.1577249,Oost-Vlaanderen
9200,Dendermonde,51.0254867,4.1019931,Oost-Vlaanderen
9200,Grembergen,51.0550925,4.1056631,Oost-Vlaanderen
9200,Mespelare,50.9960845,4.0691846,Oost-Vlaanderen
9200,Oudegem,51.0091316,4.0612485,Oost-Vlaanderen
9200,Schoonaarde,51.0035338,4.0151259,Oost-Vlaanderen
9200,Sint-Gillis-Dendermonde,51.02156,4.108014,Oost-Vlaanderen
9220,Hamme,51.090201,4.1402689,Oost-Vlaanderen
9220,Moerzeke,51.0666518,4.1557302,Oost-Vlaanderen
9230,Massemen,50.9808891,3.8734909,Oost-Vlaanderen
9230,Westrem,50.969757,3.8613947,Oost-Vlaanderen
9230,Wetteren,51.0028673,3.8896461,Oost-Vlaanderen
9240,Zele,51.0700632,4.0402907,Oost-Vlaanderen
9250,Waasmunster,51.1094708,4.0844665,Oost-Vlaanderen
9255,Buggenhout,51.0136735,4.2010994,Oost-Vlaanderen
9255,Opdorp,51.02806,4.21918,Oost-Vlaanderen
9260,Schellebelle,51.0115409,3.9288305,Oost-Vlaanderen
9260,Serskamp,50.99082,3.9221247,Oost-Vlaanderen
9260,Wichelen,51.0048213,3.9735809,Oost-Vlaanderen
9270,Kalken,51.0383253,3.9183591,Oost-Vlaanderen
9270,Laarne,51.0304277,3.8535642,Oost-Vlaanderen
9280,Denderbelle,51.0009562,4.0907494,Oost-Vlaanderen
9280,Lebbeke,51.0005702,4.1292201,Oost-Vlaanderen
9280,Wieze,50.9786176,4.0836695,Oost-Vlaanderen
9290,Berlare,51.0174273,4.0058218,Oost-Vlaanderen
9290,Overmere,51.0465707,3.9466434,Oost-Vlaanderen
9290,Uitbergen,51.022548,3.9541747,Oost-Vlaanderen
9300,Aalst,50.937793,4.0409133,Oost-Vlaanderen
9308,Gijzegem,50.9837657,4.051058,Oost-Vlaanderen
9308,Hofstade,50.9608451,4.0317903,Oost-Vlaanderen
9310,Baardegem,50.9549555,4.141577,Oost-Vlaanderen
9310,Herdersem,50.9700983,4.0659206,Oost-Vlaanderen
9310,Meldert,50.934325,4.1354329,Oost-Vlaanderen
9310,Moorsel,50.9478217,4.0983842,Oost-Vlaanderen
9320,Erembodegem,50.9206095,4.060892,Oost-Vlaanderen
9320,Nieuwerkerken,50.9234243,4.0046831,Oost-Vlaanderen
9340,Impe,50.9604418,3.9498849,Oost-Vlaanderen
9340,Lede,50.9658713,3.9773269,Oost-Vlaanderen
9340,Oordegem,50.9565245,3.9028634,Oost-Vlaanderen
9340,Smetlede,50.9660082,3.9277109,Oost-Vlaanderen
9340,Wanzele,50.9741071,3.9558401,Oost-Vlaanderen
9400,Appelterre-Eichem,50.8187951,3.9669736,Oost-Vlaanderen
9400,Denderwindeke,50.7980879,4.0247359,Oost-Vlaanderen
9400,Lieferinge,50.7919279,4.0525752,Oost-Vlaanderen
9400,Nederhasselt,50.8468981,3.9751089,Oost-Vlaanderen
9400,Ninove,50.8336435,4.018803,Oost-Vlaanderen
9400,Okegem,50.8554922,4.0555127,Oost-Vlaanderen
9400,Voorde,50.8246285,3.9448617,Oost-Vlaanderen
9401,Pollare,50.8172312,4.0068855,Oost-Vlaanderen
9402,Meerbeke,50.8238384,4.0407347,Oost-Vlaanderen
9403,Neigem,50.8033904,4.0618153,Oost-Vlaanderen
9404,Aspelare,50.8433311,3.957471,Oost-Vlaanderen
9406,Outer,50.8416281,3.9993364,Oost-Vlaanderen
9420,Aaigem,50.889158,3.9372245,Oost-Vlaanderen
9420,Bambrugge,50.9218777,3.9287832,Oost-Vlaanderen
9420,Burst,50.9134028,3.9202801,Oost-Vlaanderen
9420,Erondegem,50.9408215,3.9554259,Oost-Vlaanderen
9420,Erpe,50.9338285,3.9768861,Oost-Vlaanderen
9420,Erpe-Mere,50.914137,3.9568328,Oost-Vlaanderen
9420,Mere,50.9224188,3.968053,Oost-Vlaanderen
9420,Ottergem,50.9338291,3.9446055,Oost-Vlaanderen
9420,Vlekkem,50.936432,3.931606,Oost-Vlaanderen
9450,Denderhoutem,50.8709652,4.0184815,Oost-Vlaanderen
9450,Haaltert,50.90244,4.0056515,Oost-Vlaanderen
9450,Heldergem,50.8749786,3.960628,Oost-Vlaanderen
9451,Kerksken,50.8902903,3.9920928,Oost-Vlaanderen
9470,Denderleeuw,50.884149,4.0707683,Oost-Vlaanderen
9472,Iddergem,50.8745041,4.0487529,Oost-Vlaanderen
9473,Welle,50.8990369,4.055587,Oost-Vlaanderen
9500,Geraardsbergen,50.7705978,3.8871336,Oost-Vlaanderen
9500,Goeferdinge,50.7673697,3.8414944,Oost-Vlaanderen
9500,Moerbeke,50.752437,3.9179326,Oost-Vlaanderen
9500,Nederboelare,50.7707473,3.8630757,Oost-Vlaanderen
9500,Onkerzele,50.7854778,3.9164649,Oost-Vlaanderen
9500,Ophasselt,50.8211821,3.8913282,Oost-Vlaanderen
9500,Overboelare,50.7622737,3.8630955,Oost-Vlaanderen
9500,Viane,50.7435153,3.9227668,Oost-Vlaanderen
9500,Zarlardinge,50.7621167,3.8286395,Oost-Vlaanderen
9506,Grimminge,50.7938805,3.9441263,Oost-Vlaanderen
9506,Idegem,50.7999931,3.9267805,Oost-Vlaanderen
9506,Nieuwenhove,50.7875782,3.9866164,Oost-Vlaanderen
9506,Schendelbeke,50.7957523,3.8948669,Oost-Vlaanderen
9506,Smeerebbe-Vloerzegem,50.815712,3.9210352,Oost-Vlaanderen
9506,Waarbeke,50.7782217,3.9687964,Oost-Vlaanderen
9506,Zandbergen,50.8026594,3.9662751,Oost-Vlaanderen
9520,Bavegem,50.9442706,3.8657862,Oost-Vlaanderen
9520,Oombergen,50.9090041,3.8450079,Oost-Vlaanderen
9520,Sint-Lievens-Houtem,50.9206626,3.8544167,Oost-Vlaanderen
9520,Vlierzele,50.9312501,3.8956082,Oost-Vlaanderen
9520,Zonnegem,50.9262262,3.9087653,Oost-Vlaanderen
9521,Letterhoutem,50.9263891,3.8820403,Oost-Vlaanderen
9550,Herzele,50.8535314,3.8986569,Oost-Vlaanderen
9550,Hillegem,50.8955518,3.8541872,Oost-Vlaanderen
9550,Sint-Antelinks,50.850217,3.9253359,Oost-Vlaanderen
9550,Sint-Lievens-Esse,50.8570756,3.8855951,Oost-Vlaanderen
9550,Steenhuize-Wijnhuize,50.8457249,3.8757417,Oost-Vlaanderen
9550,Woubrechtegem,50.8729342,3.9158202,Oost-Vlaanderen
9551,Ressegem,50.8920412,3.9096039,Oost-Vlaanderen
9552,Borsbeke,50.9048954,3.8932,Oost-Vlaanderen
9570,Deftinge,50.7873351,3.8396638,Oost-Vlaanderen
9570,Lierde,50.8190695,3.8381658,Oost-Vlaanderen
9570,Sint-Maria-Lierde,50.8183551,3.8390631,Oost-Vlaanderen
9571,Hemelveerdegem,50.8069634,3.8569442,Oost-Vlaanderen
9572,Sint-Martens-Lierde,50.8046682,3.8227044,Oost-Vlaanderen
9600,Ronse,50.7505367,3.6005095,Oost-Vlaanderen
9620,Elene,50.890414,3.8102911,Oost-Vlaanderen
9620,Erwetegem,50.8534264,3.8187486,Oost-Vlaanderen
9620,Godveerdegem,50.862263,3.8299361,Oost-Vlaanderen
9620,Grotenberge,50.8730328,3.8334131,Oost-Vlaanderen
9620,Leeuwergem,50.8881102,3.8302773,Oost-Vlaanderen
9620,Oombergen,50.8990217,3.8370058,Oost-Vlaanderen
9620,Sint-Goriks-Oudenhove,50.853451,3.7861968,Oost-Vlaanderen
9620,Sint-Maria-Oudenhove,50.8332892,3.7961149,Oost-Vlaanderen
9620,Strijpen,50.8680225,3.7876333,Oost-Vlaanderen
9620,Velzeke-Ruddershove,50.8856442,3.7808616,Oost-Vlaanderen
9620,Zottegem,50.8695474,3.8107094,Oost-Vlaanderen
9630,Beerlegem,50.9058963,3.7167363,Oost-Vlaanderen
9630,Dikkele,50.9041388,3.7421149,Oost-Vlaanderen
9630,Hundelgem,50.8895095,3.7483584,Oost-Vlaanderen
9630,Meilegem,50.9049599,3.6989579,Oost-Vlaanderen
9630,Munkzwalm,50.8778017,3.7330622,Oost-Vlaanderen
9630,Paulatem,50.8962994,3.7156505,Oost-Vlaanderen
9630,Roborst,50.8626053,3.7637433,Oost-Vlaanderen
9630,Rozebeke,50.8496528,3.7527652,Oost-Vlaanderen
9630,Sint-Blasius-Boekel,50.8516744,3.719383,Oost-Vlaanderen
9630,Sint-Denijs-Boekel,50.8649078,3.711336,Oost-Vlaanderen
9630,Sint-Maria-Latem,50.890211,3.7068644,Oost-Vlaanderen
9630,Zwalm,50.8799184,3.7288705,Oost-Vlaanderen
9636,Nederzwalm-Hermelgem,50.8875058,3.6863847,Oost-Vlaanderen
9660,Brakel,50.80276,3.76382,Oost-Vlaanderen
9660,Elst,50.8312919,3.7386165,Oost-Vlaanderen
9660,Everbeek,50.7629802,3.8082788,Oost-Vlaanderen
9660,Michelbeke,50.8334231,3.7629436,Oost-Vlaanderen
9660,Nederbrakel,50.8030762,3.7521934,Oost-Vlaanderen
9660,Opbrakel,50.7970364,3.7569851,Oost-Vlaanderen
9660,Sint-Maria-Oudenhove,50.8212854,3.7846312,Oost-Vlaanderen
9660,Zegelsem,50.8188341,3.7181357,Oost-Vlaanderen
9661,Parike,50.7848195,3.7979447,Oost-Vlaanderen
9667,Horebeke,50.8372,3.68672,Oost-Vlaanderen
9667,Sint-Kornelis-Horebeke,50.834426,3.6983276,Oost-Vlaanderen
9667,Sint-Maria-Horebeke,50.84049,3.691596,Oost-Vlaanderen
9680,Etikhove,50.812527,3.6266634,Oost-Vlaanderen
9680,Maarke-Kerkem,50.8159061,3.6543619,Oost-Vlaanderen
9680,Maarkedal,50.7992486,3.6442007,Oost-Vlaanderen
9681,Nukerke,50.79703,3.5947056,Oost-Vlaanderen
9688,Schorisse,50.8044682,3.6769838,Oost-Vlaanderen
9690,Berchem,50.7901621,3.5095443,Oost-Vlaanderen
9690,Kluisbergen,50.7784304,3.4935589,Oost-Vlaanderen
9690,Kwaremont,50.7767287,3.5253769,Oost-Vlaanderen
9690,Ruien,50.770725,3.4829674,Oost-Vlaanderen
9690,Zulzeke,50.7889651,3.5708891,Oost-Vlaanderen
9700,Bevere,50.8523695,3.5875451,Oost-Vlaanderen
9700,Edelare,50.8302334,3.6287307,Oost-Vlaanderen
9700,Eine,50.867937,3.620744,Oost-Vlaanderen
9700,Ename,50.8570277,3.6319101,Oost-Vlaanderen
9700,Heurne,50.8837448,3.6287389,Oost-Vlaanderen
9700,Leupegem,50.8329265,3.6018007,Oost-Vlaanderen
9700,Mater,50.8424603,3.6635537,Oost-Vlaanderen
9700,Melden,50.8138095,3.5642799,Oost-Vlaanderen
9700,Mullem,50.8912265,3.6030581,Oost-Vlaanderen
9700,Nederename,50.8667191,3.6348815,Oost-Vlaanderen
9700,Ooike,50.8675682,3.5771661,Oost-Vlaanderen
9700,Oudenaarde,50.8469306,3.6014367,Oost-Vlaanderen
9700,Volkegem,50.8393802,3.6427814,Oost-Vlaanderen
9700,Welden,50.8784011,3.6555399,Oost-Vlaanderen
9750,Huise,50.8993266,3.5896534,Oost-Vlaanderen
9750,Ouwegem,50.9115762,3.5992209,Oost-Vlaanderen
9750,Kruisem,50.9166667,3.5666667,Oost-Vlaanderen
9771,Nokere,50.8850943,3.5105895,Oost-Vlaanderen
9772,Wannegem-Lede,50.889802,3.5515066,Oost-Vlaanderen
9790,Elsegem,50.8245725,3.5353615,Oost-Vlaanderen
9790,Moregem,50.8504552,3.5614071,Oost-Vlaanderen
9790,Ooike,50.8698651,3.5510607,Oost-Vlaanderen
9790,Petegem-Aan-De-Schelde,50.8333051,3.556078,Oost-Vlaanderen
9790,Wortegem,50.8520887,3.5102432,Oost-Vlaanderen
9790,Wortegem-Petegem,50.8445045,3.5268826,Oost-Vlaanderen
9800,Astene,50.9837892,3.5604333,Oost-Vlaanderen
9800,Bachte-Maria-Leerne,51.0108541,3.5783676,Oost-Vlaanderen
9800,Deinze,50.9833333,3.5272222,Oost-Vlaanderen
9800,Gottem,50.9649581,3.461345,Oost-Vlaanderen
9800,Grammene,50.9771417,3.4648864,Oost-Vlaanderen
9800,Meigem,51.0168961,3.5404289,Oost-Vlaanderen
9800,Petegem-Aan-De-Leie,50.9800082,3.5338779,Oost-Vlaanderen
9800,Sint-Martens-Leerne,51.0154398,3.5877172,Oost-Vlaanderen
9800,Vinkt,51.0081641,3.4793989,Oost-Vlaanderen
9800,Wontergem,50.9794219,3.4445577,Oost-Vlaanderen
9800,Zeveren,50.9962852,3.5011056,Oost-Vlaanderen
9810,Eke,50.9580565,3.6374551,Oost-Vlaanderen
9810,Nazareth,50.9597659,3.5951408,Oost-Vlaanderen
9820,Bottelare,50.9631988,3.7537909,Oost-Vlaanderen
9820,Lemberge,50.9781227,3.7729677,Oost-Vlaanderen
9820,Melsen,50.9563191,3.6940645,Oost-Vlaanderen
9820,Merelbeke,50.9945472,3.7455438,Oost-Vlaanderen
9820,Munte,50.9450049,3.7441552,Oost-Vlaanderen
9820,Schelderode,50.9713789,3.7155352,Oost-Vlaanderen
9830,Sint-Martens-Latem,51.0135066,3.6287716,Oost-Vlaanderen
9831,Deurle,51.0092272,3.6043494,Oost-Vlaanderen
9840,De Pinte,50.99177,3.64936,Oost-Vlaanderen
9840,Zevergem,50.9791445,3.6961517,Oost-Vlaanderen
9850,Hansbeke,51.0747168,3.5356476,Oost-Vlaanderen
9850,Landegem,51.0567048,3.5731481,Oost-Vlaanderen
9850,Merendree,51.0777421,3.577022,Oost-Vlaanderen
9850,Poesele,51.033991,3.5161497,Oost-Vlaanderen
9850,Vosselare,51.0294647,3.5574385,Oost-Vlaanderen
9860,Balegem,50.9204927,3.7934984,Oost-Vlaanderen
9860,Gijzenzele,50.9710111,3.8165185,Oost-Vlaanderen
9860,Landskouter,50.9683883,3.7928735,Oost-Vlaanderen
9860,Moortsele,50.9590134,3.779462,Oost-Vlaanderen
9860,Oosterzele,50.9467656,3.815505,Oost-Vlaanderen
9860,Scheldewindeke,50.9380652,3.7847942,Oost-Vlaanderen
9870,Machelen,50.958822,3.4880452,Oost-Vlaanderen
9870,Olsene,50.9362129,3.4657328,Oost-Vlaanderen
9870,Zulte,50.9219215,3.4437734,Oost-Vlaanderen
9880,Aalter,51.0833333,3.45,Oost-Vlaanderen
9880,Lotenhulle,51.0483873,3.4655772,Oost-Vlaanderen
9880,Poeke,51.040935,3.4440488,Oost-Vlaanderen
9881,Bellem,51.0884355,3.4906454,Oost-Vlaanderen
9890,Asper,50.9160245,3.6510321,Oost-Vlaanderen
9890,Baaigem,50.9296017,3.7219346,Oost-Vlaanderen
9890,Dikkelvenne,50.9190023,3.6874247,Oost-Vlaanderen
9890,Gavere,50.9283314,3.6599198,Oost-Vlaanderen
9890,Semmerzake,50.9430929,3.6647202,Oost-Vlaanderen
9890,Vurste,50.9490931,3.6843031,Oost-Vlaanderen
9900,Eeklo,51.1852719,3.5638899,Oost-Vlaanderen
9910,Ursel,51.1294092,3.4856153,Oost-Vlaanderen
9920,Lievegem,51.1333333,3.6,Oost-Vlaanderen
9920,Lovendegem,51.1075935,3.6285575,Oost-Vlaanderen
9921,Vinderhoute,51.0869089,3.6407214,Oost-Vlaanderen
9931,Oostwinkel,51.1508463,3.5252604,Oost-Vlaanderen
9932,Ronsele,51.1309736,3.5516605,Oost-Vlaanderen
9940,Ertvelde,51.1787632,3.7466865,Oost-Vlaanderen
9940,Evergem,51.1101028,3.7067231,Oost-Vlaanderen
9940,Kluizen,51.1557298,3.7303321,Oost-Vlaanderen
9940,Sleidinge,51.1319702,3.6789117,Oost-Vlaanderen
9960,Assenede,51.2269806,3.7510157,Oost-Vlaanderen
9961,Boekhoute,51.2581738,3.7181501,Oost-Vlaanderen
9968,Bassevelde,51.2300624,3.6777432,Oost-Vlaanderen
9968,Oosteeklo,51.1920171,3.6883778,Oost-Vlaanderen
9970,Kaprijke,51.223075,3.6186057,Oost-Vlaanderen
9971,Lembeke,51.1945809,3.6330207,Oost-Vlaanderen
9980,Sint-Laureins,51.2361689,3.5329424,Oost-Vlaanderen
9981,Sint-Margriete,51.2803944,3.5469357,Oost-Vlaanderen
9982,Sint-Jan-In-Eremo,51.2737009,3.5768505,Oost-Vlaanderen
9988,Waterland-Oudeman,51.2888925,3.5902999,Oost-Vlaanderen
9988,Watervliet,51.2765175,3.6270198,Oost-Vlaanderen
9990,Maldegem,51.209082,3.4486611,Oost-Vlaanderen
9991,Adegem,51.2046849,3.4868397,Oost-Vlaanderen
9992,Middelburg,51.2547106,3.4150935,Oost-Vlaanderen
